{"type":"Topology","arcs":[[[92807,25836],[-100,16],[-3,-24],[-81,-74],[-49,19],[-31,-122],[-54,-27],[-81,-72],[-22,-48],[27,-40],[-152,-134],[-19,-82],[10,-92],[26,-57],[-95,-86],[-6,-41],[-63,-50],[-71,-136],[3,-108],[38,-76],[-40,-24],[-38,-105],[-28,4],[-64,-105],[-39,-26],[18,-50],[-75,-51],[3,-109],[-95,-116],[-82,57],[-74,-51],[45,-80],[-12,-44],[55,-46],[6,-36],[-29,-125],[-94,-15],[-20,-62],[-70,-114],[19,-53],[6,-140],[-22,-73],[23,-105],[-28,-47],[-41,-163],[12,-44],[-28,-97],[-3,-89],[21,-23],[-4,-119],[37,-100],[-3,-91],[-36,-63],[1,-84],[-73,-73],[-45,-70],[-41,-108],[8,-70],[36,-23],[-26,-84],[-42,-70],[13,-80],[-17,-93],[26,-31],[-26,-77],[-81,-161],[-96,-229],[-10,-192],[-27,-64],[-64,-68],[-20,-98],[29,-36],[-37,-62],[1,-88],[-37,14],[-28,-94],[34,-60],[48,-13],[-28,-120],[44,-92],[-12,-51],[-165,-159],[79,-53],[59,-7],[51,21],[94,-112],[43,-6],[39,-229],[72,-126],[-84,16],[-74,44],[-49,-30],[-57,-99],[56,-76],[16,-64],[-55,-140],[22,-155],[41,-62],[2,-179]],[[91024,18604],[-944,454],[-579,282],[-893,438],[-477,236],[-675,337],[-808,405],[-61,10],[-150,-12],[-10,50],[84,147],[113,121],[12,51],[45,73],[28,97],[-5,63],[-34,30],[-95,32],[-33,53],[-45,-19],[-22,49],[38,77],[-28,69],[-9,115],[-91,40],[-2,60],[-64,49],[-57,151],[43,101],[-31,88],[-38,237],[33,58],[-46,90],[24,106],[-69,29],[-31,36],[13,70],[-39,34],[43,118],[-64,15],[-119,3],[-28,44],[2,96],[-69,-10],[-165,58],[-15,38],[-84,-4],[-48,42],[-40,-5],[-81,85],[-53,-31],[-81,-17],[-38,-53],[-134,-73],[-70,-53],[-72,52],[-67,120],[-85,7],[-19,-41],[-128,43],[-50,-87],[-57,-51],[-36,-107],[15,-24],[-84,-85],[-43,45],[-143,21],[-93,-35],[-105,57],[-60,8],[-58,85],[-44,-158],[-26,0],[-63,-65],[-26,-90],[-33,-34],[-47,77],[-107,22],[-54,-37],[-12,-64],[-83,28],[-25,71],[-52,-14],[-19,42],[-60,-39],[-56,-7],[-28,75],[-46,20],[-87,-2],[-73,41],[-34,55],[-83,-38],[-79,56],[-105,139],[-94,-13],[-49,-40],[-57,66],[-63,18],[-31,-77],[-78,71],[-49,0],[-83,-67],[-11,-59],[-43,-14],[15,-73],[-49,-40],[-88,71],[-4,-50],[-94,23],[-7,61],[-79,6],[-30,-44],[-113,-6],[-49,-21],[-10,52],[-47,-17],[-32,26],[-84,7],[-30,-18],[-93,22],[-64,56],[-110,-57],[-85,66],[-3,42],[-88,40],[-17,34],[-92,-6],[-53,-42],[-12,-42],[-125,1],[-90,74],[-24,-18],[-51,67],[-70,53],[-59,-3],[-36,70],[-66,43],[-18,80],[-40,-25],[-49,24],[-75,137],[-63,38],[-27,-42],[-44,27],[-79,-5],[-71,-73],[-55,22],[-24,-62],[-57,-4],[-85,-48],[-68,46],[-43,-30],[-57,12],[-92,79],[-122,-13],[-70,-23],[-84,45],[-59,11],[-92,-11],[-63,-29],[-66,-57],[-101,-7],[-10,-76],[-64,-148],[19,-90],[-64,-21],[-17,-61],[56,-50],[87,-131],[12,-49],[-54,-45],[-45,-9],[-34,46],[-109,11],[-33,18],[-81,-77],[3,-42],[-47,-18],[-45,-64],[-143,8],[-10,37],[-62,-14],[-16,67],[-66,0],[19,67],[-97,-14],[0,63],[-69,4],[-15,37],[-87,2],[-13,54],[-60,56],[-82,21],[-15,66],[-51,18],[-71,82],[-63,31],[-40,63],[-36,18],[-6,135],[-39,2],[-61,120],[27,56],[-58,45],[0,34],[-75,33],[-50,69],[-37,14],[-45,-51],[-48,98],[-82,52],[-4,54],[-45,2],[-24,47],[-54,-4],[-25,78],[-31,-1],[-57,62],[-31,107],[-105,43],[-35,62],[-143,9],[6,58],[-43,6],[-38,84],[-98,12],[-126,58],[-65,69],[-35,11],[-22,53],[-69,46],[-64,-3],[10,68],[-53,38],[-93,-11],[-78,62],[-85,-89],[-32,27],[-116,155],[-49,10],[2,60],[53,119],[-47,131],[35,66],[-38,34],[-85,-52],[-24,22],[-119,-20],[-16,48],[-45,41],[-123,-10],[-33,58],[20,83],[-42,72],[-61,54],[-20,50],[-15,165],[2,96],[-43,51],[4,114],[52,24],[-21,169],[40,62],[-7,29],[33,114],[-19,65],[-108,48],[-59,-46],[-25,56],[-47,31],[-28,60],[-33,-1],[-79,58],[-9,46],[-59,-21],[-88,57],[-108,-1],[-60,40],[-62,-43],[-65,23],[-3,72],[-88,3],[-33,-20],[-95,82],[-55,-15],[-7,-43],[-62,-14],[-31,137],[-54,14],[-10,38],[-74,8],[-43,54],[52,87],[-39,35],[-31,-87],[-58,-1],[16,-52],[-157,-20],[12,-28],[-37,-118],[50,-38],[-19,-44],[-56,-5],[43,-122],[-42,-57],[-60,34],[-95,-31],[7,-50],[67,-29],[-35,-61],[-41,-3],[-48,37],[-174,40],[-63,62],[47,107],[-51,96],[-65,17],[1,81],[-32,71],[30,71],[-8,88],[-81,-36],[-59,69],[-84,38],[-20,42],[58,106],[-75,13],[-19,53],[28,71],[-31,85],[-1,75],[45,34],[-5,41],[57,29],[13,67],[-78,33],[-41,-28],[-66,-1],[-72,40],[-50,61],[-82,-13],[27,124],[-34,55],[19,98],[-35,29],[-22,77],[-53,-6],[-97,37],[16,58],[-49,10],[-61,-76],[-96,3],[-38,62],[20,67],[-56,16],[-94,61],[-1,-61],[-73,39],[-89,-22],[-107,25],[-45,-10],[-12,-50],[-93,-4],[-99,51],[-68,4],[-72,34],[-69,-36],[-30,59],[-68,-17],[-58,-48],[-46,-10],[-7,-60],[-104,-107],[-17,-71],[-36,21],[-124,-44],[-17,87],[-40,70],[-103,-20],[-100,34],[-21,69],[-133,47],[-42,-60],[-48,60],[-72,26],[-54,74],[-133,54],[-68,-86],[-65,30],[-38,56],[-98,-23],[-14,-24],[-72,67],[-132,30],[-14,69]],[[68982,29179],[-1,731],[0,638],[-1,738],[0,808],[-1,672],[0,636],[-1,869],[0,1111],[-1,895],[-1,1049],[0,746],[0,1169],[0,624],[-1,716],[0,655],[0,966],[-1,790],[-1,811],[0,625]],[[68973,44428],[493,0],[960,0],[1051,0],[936,0],[492,0],[984,0],[981,0],[491,0],[615,0],[777,0],[771,0],[1093,0],[809,0],[600,0],[613,0],[818,0],[609,0],[1032,0],[883,0],[639,0],[920,0],[1068,0],[601,0],[718,0],[596,0],[35,63],[153,77],[71,199],[41,89],[0,44],[43,36],[74,-12],[27,23],[2,65],[51,-12],[65,49],[4,53],[74,43],[68,72],[82,22],[34,63],[43,-3],[44,39],[84,31],[61,-16],[106,171],[-3,35],[64,95],[128,59],[119,-9],[39,21],[62,-21],[33,-68],[46,19],[44,-53],[121,-58],[31,56],[84,-15],[213,42],[108,-8],[37,-37],[47,26],[85,-11],[88,17],[127,85],[34,-20],[47,29],[33,-18],[81,40],[136,49],[11,-20],[107,-39],[53,57],[80,43],[62,9],[67,-59],[23,-46],[50,-8],[31,-43],[19,-98],[53,-39],[59,-4],[65,-88],[44,-13],[64,34],[118,-45],[119,49],[43,-46],[80,-17],[23,36],[69,34],[24,-23],[52,18],[63,60],[62,3],[154,-70],[12,-28],[74,-23],[99,-63],[36,24],[64,-56],[6,-53],[47,-40],[66,12],[78,-33],[37,-36],[-2,-117],[39,-12],[-5,-118],[48,-29],[59,36],[51,-7],[70,-71],[72,-16],[24,-37],[70,-20],[38,-61],[58,-15],[5,-32],[84,-57],[14,-77],[-21,-27],[27,-91],[7,-189],[-26,-35],[9,-69],[54,-45],[42,-74],[-15,-69],[66,-55],[48,21],[91,-15],[36,71],[37,15],[81,97],[12,57],[60,32],[19,174],[27,72],[77,82],[18,80],[164,90],[63,4],[71,51],[99,103],[49,14],[48,-147],[68,-69],[10,-58],[72,36],[46,-56],[35,64],[0,91],[137,-2],[67,-45],[94,28],[83,62],[39,-25],[31,49],[30,98],[-51,25],[45,67],[8,217],[14,75],[83,72],[-20,70],[-38,9],[-33,53],[-61,-3],[-57,125],[-12,129],[-72,57],[-3,134],[67,48],[15,-68],[68,2],[71,91],[53,30],[31,44],[104,30],[49,56],[56,30],[98,-17],[31,-33],[54,94],[67,83],[37,-6],[63,72],[85,3],[36,21],[71,-24],[79,113],[-17,65],[27,33],[55,7],[4,36],[44,79],[112,31],[67,-51],[-26,-122],[69,-56],[45,-7],[18,-38],[55,97],[-11,49],[49,26],[55,-90],[47,7],[37,-49],[120,-55],[69,-60],[65,55],[39,-25],[94,105],[44,25],[70,-1],[55,-42],[95,-28],[84,9],[25,-19],[201,-19],[22,-24],[82,-19],[56,85],[-11,40],[106,73],[6,103],[41,36],[110,-54],[27,54],[82,40],[67,-17],[62,9],[23,-42],[63,10],[61,38],[39,72],[74,73],[42,18],[38,57],[43,16],[112,-55],[51,33]],[[99808,46962],[-56,-79],[61,-7],[39,-27],[3,-137],[36,-34],[-36,-213],[17,-110],[-25,-92],[-35,-212],[-2,-192],[44,-204],[48,-88],[97,-77],[-40,-157],[12,-61],[-53,-151],[-2,-91],[25,-25],[-3,-97],[-38,-100],[-43,-33],[-179,-259],[-86,-148],[-61,-159],[-12,-124],[40,-23],[-6,-94],[-72,-82],[-66,-111],[-101,-199],[-26,-124],[27,-105],[56,-49],[-27,-153],[12,-51],[-24,-83],[22,-50],[-18,-142],[-52,-106],[-18,-90],[24,-49],[-45,-104],[-4,-71],[31,-22],[-71,-124],[-32,-115],[28,-69],[-38,-67],[16,-82],[-60,-100],[-6,-84],[17,-27],[-7,-74],[-27,-89],[-67,-95],[-88,-180],[17,-95],[-12,-86],[30,-31],[-30,-98],[6,-45],[-86,-129],[-32,-110],[-38,-85],[16,-57],[-11,-96],[-48,-53],[-36,-74],[-12,-67],[-57,-84],[-6,-83],[-61,-86],[-47,-118],[-17,-105],[10,-41],[-29,-51],[-17,-156],[16,-86],[-61,-162],[-9,-106],[33,-51],[-11,-113],[17,-149],[18,-65],[63,-79],[97,-20],[29,-73],[-8,-38],[-68,-99],[-35,-89],[-14,-83],[16,-95],[51,-32],[-41,-70],[-123,-164],[-32,-63],[-25,-129],[-26,-66],[-10,-79],[25,-48],[-12,-146],[18,-29],[-87,-130],[-38,-83],[-18,-107],[53,-113],[-3,-45],[-145,-166],[-58,-92],[-30,-88],[20,-29],[-34,-75],[22,-62],[-70,-76],[-40,-70],[-13,-65],[28,-31],[-147,-211],[-29,-90],[35,-66],[-138,-99],[-136,-130],[-66,-81],[-76,-118],[-28,-72],[-56,-80],[10,-113],[-61,-76],[-34,-88],[-7,-114],[19,-41],[55,-14],[17,-57],[68,-42],[-11,-40],[-58,-65],[-40,-91],[-8,-96],[53,-79],[-58,-161],[-3,-116],[39,-41],[-52,-29],[-170,-60],[-200,-112],[-70,-56],[-83,-102],[-47,-106],[-96,-41],[-72,-56],[-57,-88],[-12,-79],[-109,10],[-41,55],[-44,-59],[-95,-27],[-54,44],[-111,15],[-71,35],[-46,-51],[60,-93],[-87,-38],[40,-49],[154,43],[49,-26],[83,33],[38,-30],[53,36],[42,-12],[79,32],[59,-28],[-27,-107],[-41,-33],[-78,-4],[-28,-79],[-131,25],[-134,-35],[-137,-53],[-172,-82],[-175,-116],[-41,-46],[-2,112],[64,78],[-25,31],[-88,-14],[-11,-82],[37,-91],[-32,-57],[3,-72],[51,0],[-134,-116],[-26,-46],[4,-99],[-131,-105],[-44,-90],[-36,-15],[36,133],[-59,23],[-10,105],[-111,-5],[54,-85],[-37,-10],[-22,-132],[-89,16],[-31,-63],[-58,-24],[9,-35],[60,2],[23,38],[44,-26],[-9,-55],[-59,2],[-47,-51],[24,-74],[39,9],[41,-50],[21,63],[-40,19],[77,59],[9,-72],[42,9],[31,141],[81,25],[-15,-136],[-30,-39],[6,-74],[-31,-70],[-55,-40],[-87,-118],[15,-121],[-135,-87],[16,50],[58,78],[-16,43],[115,163],[-28,37],[-60,-115],[-106,5],[29,-88],[-53,-5],[-26,-58],[-111,-83],[-6,-96],[74,-75],[74,80],[14,-46],[-38,-53],[-5,-64],[-107,-137],[-24,-161],[-69,-114],[-45,13],[-96,-48],[24,77],[-28,27],[29,48],[-39,26],[42,131],[-69,5],[-45,-71],[56,-79],[24,-67],[-66,-55],[-43,-93],[-60,18],[-47,-58],[-30,44],[23,53],[-35,45],[-76,6],[-139,105],[30,62],[-60,-4],[34,-96],[-16,-123],[71,66],[22,-52],[79,-21],[31,-59],[72,-87],[92,54],[31,-20],[-88,-168],[53,-73],[71,143],[37,-33],[-73,-189],[-31,-60],[9,-83],[-33,-192],[39,-37],[-10,-52],[-96,26],[1,-69],[-43,-26],[-94,-7],[-77,64],[-16,-48],[-138,18],[6,-52],[93,39],[29,-38],[53,12],[199,-62],[-5,59],[45,41],[8,-163],[-38,-28],[-30,-61],[-3,-93],[21,-23],[-39,-119],[-50,57],[-67,26],[-9,42],[-74,23],[-26,-29],[-20,-106],[-59,-63],[29,-67],[57,29],[89,21],[5,32],[73,18],[-7,-92],[-66,-22],[-32,22],[-50,-20],[-26,-43],[4,-76],[38,-19],[-122,-161],[-189,-142],[-128,-127],[-166,-283],[-14,-97],[25,-52],[-56,-74],[0,-87],[-18,-126],[36,-32],[-13,-53],[-57,-59],[-73,85],[-62,-18],[-39,-36],[-4,-96],[-44,-65],[90,-5],[12,43],[81,-7],[-4,-84],[38,-103],[-68,-23],[14,-45],[-17,-93],[13,-89],[-79,-244],[-90,-41],[-72,-104],[-31,-114],[4,-109],[73,-129],[-12,-50],[21,-113],[33,-52],[56,-34],[70,8],[-37,-93],[21,-25],[-24,-72],[-65,-58],[-81,88],[28,104],[-35,27],[11,58],[-37,32],[-48,1],[-132,-77],[-35,-53],[4,-81],[36,-32],[15,-120],[17,-35]],[[89195,25536],[-59,18],[-43,66],[-3,87],[-65,34],[5,38],[-107,53],[-763,-556],[-41,-96],[37,-132],[-56,-80],[7,-53],[-34,-47],[-30,-163],[25,-219],[39,-63],[-49,-48],[36,-74],[-31,-35],[7,-46],[61,-35],[-25,-94],[20,-35],[77,-51],[17,-44],[64,-37],[8,58],[56,44],[18,-97],[6,-203],[28,-99],[124,-125],[132,-24],[90,-62],[32,122],[61,96],[34,102],[-1,76],[-23,73],[46,210],[-36,60],[6,89],[-24,24],[-23,161],[16,17],[138,-23],[-20,119],[42,115],[4,55],[-40,120],[28,117],[91,109],[51,96],[66,16],[44,37],[87,-23],[38,15],[89,-21],[28,-32],[106,59],[-18,74],[-81,22],[-7,23],[-80,47],[-107,16],[-91,93],[-7,56]],[[68890,16932],[14,878],[6,925],[-2,461],[-5,247],[3,493],[-9,1009],[1,210],[-4,883],[-8,1148],[-2,751],[7,1091],[-1,1156],[-2,1126],[-1,604],[-5,716],[3,674],[41,-57],[13,-85],[43,17]],[[91024,18604],[-148,-82],[-23,-32],[-95,7],[-112,-12],[-100,-32],[-40,-57],[-64,-33],[-47,-77],[-34,-102],[-43,-43],[-35,-85],[-142,-45],[-55,-78],[-42,10],[-74,-18],[-124,-76],[-5,-44],[-399,-30],[-156,-44],[-42,33],[-313,14],[-192,-8],[-295,-5],[-89,-16],[-199,1],[-146,-32],[-57,-36],[-53,21],[-76,0],[-117,-19],[-36,14],[-371,7],[-231,-8],[-261,-34],[-198,-50],[-259,-99],[-54,-9],[-178,-68],[-72,-16],[-244,-105],[-153,-78],[-202,-130],[-191,-145],[-211,-176],[-185,-168],[-561,-553],[-162,-153],[-260,-254],[-224,-240],[-108,-127],[-110,-73],[-16,48],[-160,-23],[-60,-38],[-13,-66],[-90,-45],[-51,7],[-87,-52],[-55,34],[-264,-44],[-29,-75],[-142,49],[-67,-43],[-55,21],[-63,-34],[-28,-49],[-55,7],[-9,104],[-73,39],[-50,-44],[-95,-24],[-60,22],[-38,-22],[-52,17],[-11,-49],[-72,-37],[-28,-77],[91,-105],[12,-69],[30,-32],[63,18],[13,-167],[38,-17],[14,-117],[78,3],[30,70],[80,62],[119,33],[9,116],[36,45],[7,52],[75,-8],[25,-54],[-20,-96],[10,-37],[-17,-92],[46,-59],[2,-40],[-62,-75],[-63,-147],[24,-57],[-3,-60],[58,-16],[22,-63],[-115,-67],[-13,-55],[29,-29],[-40,-98],[-131,-25],[-37,26],[-69,96],[44,103],[-40,57],[-129,137],[-14,72],[-84,163],[-122,149],[-150,115],[-147,60],[-75,-5],[-58,-39],[-29,-96],[22,-57],[-67,-56],[-81,-1],[-67,-34],[-9,105],[-107,281],[-94,154],[-98,125],[-76,70],[-78,50],[-106,-13],[-76,-75],[-72,13],[-50,-18],[-104,75],[-54,109],[-121,165],[-48,38],[-58,9],[-65,36],[-127,1],[-20,47],[134,22],[39,62],[-35,68],[23,42],[8,85],[-23,50],[143,16],[19,-24],[73,4],[39,48],[43,131],[-24,52],[-66,3],[16,114],[-60,76],[-23,115],[-88,47],[-72,13],[-27,-35],[-167,41],[-7,-46],[-76,-55],[-75,2],[-61,29],[-121,-201],[-28,-74],[58,-67],[-12,-25],[11,-108],[-35,-34],[-181,44],[-82,-36],[-70,-68],[-44,-16],[-43,-80],[-17,-70],[-123,-33],[-60,7],[-66,-28],[-32,24],[-63,-13],[3,50],[-112,136],[-253,240],[-177,125],[35,21],[65,-38],[79,-21],[25,-53],[62,-53],[154,-33],[213,65],[126,67],[47,68],[-28,26],[105,130],[0,71],[21,46],[68,42],[63,111],[61,37],[22,57],[3,153],[-24,94],[-54,112],[-97,86],[-50,-21],[-50,71],[-61,134],[-4,111],[-50,103],[-69,40],[-87,0],[9,-58],[-65,-17],[-22,26],[-147,-66],[-26,-75],[3,-54],[-136,-50],[-110,-103],[-26,-1],[-94,-86],[-142,-8],[-75,-86],[-114,-39],[-20,-134],[-49,35],[-70,3],[-27,-28],[-87,7],[-36,32],[-40,-72],[-39,-24],[-24,-100],[72,-16],[43,-36],[74,48],[48,-49],[69,-27],[114,13],[93,27],[165,134],[150,-40],[66,-78],[-1,-82],[-22,-75],[-43,10],[-66,-47],[-100,-142],[-27,-107],[-160,58],[-91,-2],[-30,-51],[-158,28],[-141,-64],[-20,-27],[-101,-44],[-29,-60],[-34,-9],[-43,-58],[-84,-63],[-172,-89],[-6,-36],[-117,-19],[-66,-102],[-92,1],[-76,-21],[-139,-171],[17,-48],[-33,-56],[-60,-31],[-72,-62],[-29,-88],[-40,-28],[-121,-133],[-13,-42],[-64,0],[-308,-129],[-35,-40],[-24,-104],[-111,-38],[-78,-105],[-71,-76],[-109,-8],[-112,144],[-94,84],[-41,-1],[-132,87],[-131,13],[-113,-63],[-92,32],[-91,87],[-148,166],[-126,89],[-122,65],[-85,13],[-106,-8],[-103,42],[-101,15],[-20,41],[-111,63],[-73,26],[-141,128],[-49,31],[-138,120],[-199,149],[-175,85],[-46,-24],[-169,119],[-80,40],[-135,-32],[-19,11],[-118,-25],[-70,-84],[-84,-9],[-124,17],[-183,102],[-146,119],[-200,114],[-118,39],[-351,40],[-93,-19],[-99,-49],[-137,-95],[-22,-43],[50,-65],[4,-36],[71,-116],[-86,-5],[-89,19],[-51,-54],[-1,-50],[-45,-26],[-35,28],[-14,96],[-143,84],[-90,1],[-44,-23],[17,-75],[-96,23],[-15,79],[73,68],[-25,80],[-75,113],[-208,218],[-110,98],[-107,78],[-137,87],[-223,124],[-115,47],[-62,12]],[[79195,15669],[132,70],[154,-7],[80,-26],[-46,-62],[60,-90],[104,4],[-47,-105],[-75,74],[-51,25],[-114,12],[-47,-66],[-74,41],[-117,27],[41,103]],[[82651,14848],[32,22],[64,-66],[-151,-103],[-126,50],[-72,104],[16,34],[86,12],[67,-42],[21,-52],[63,41]],[[98295,54311],[-3,-49],[53,7],[48,-41],[-13,-71],[112,-90],[23,-75],[-28,-51],[43,-39],[-14,-55],[-34,-2],[-14,-62],[50,-65],[-59,-51],[13,-70],[71,45],[-9,46],[30,61],[-37,15],[-9,49],[77,23],[3,70],[-31,49],[21,103],[43,40],[9,-124],[32,-127],[46,-78],[73,-69],[64,-14],[52,32],[-88,-223],[-89,-276],[-41,-153],[-49,-215],[-22,-123],[-15,-146],[17,-148],[61,-74],[57,19],[-42,-274],[-17,-187],[25,-44],[-12,-102],[8,-181],[20,-94],[70,-27],[-8,-153],[6,-133],[35,-87],[-69,-23],[-31,-113],[-4,-120],[-66,-27],[-48,-61],[-9,-55],[-38,-38],[56,-87],[16,-106],[74,-76],[24,-54],[78,-70],[-35,-34],[-52,-2],[-111,-81],[-84,-196],[52,-49],[94,-31],[64,42],[7,-123],[-24,-90],[-70,-6],[-38,-61],[14,-93],[32,-58],[137,-84],[44,-8],[0,-87],[80,142],[32,-22],[-56,-100],[-22,-95],[13,-71],[53,-102],[62,-28],[92,1],[2,-94],[70,-1],[-28,-80],[31,-62],[44,-12],[11,-59],[-26,-33],[23,-68],[0,-139],[28,-109],[62,13],[21,-51],[65,6],[12,2],[8,7],[26,-39],[10,-45],[23,-22],[51,-8],[-1,-56],[-27,-51],[-99,-14],[-27,-47],[-6,-49],[37,-38],[39,-104],[-21,-35],[37,-114],[5,-131],[47,-60],[20,-199],[31,-132],[68,-127],[115,-124],[67,6]],[[68973,44428],[0,938],[0,783],[0,492],[0,804],[0,1060],[0,971],[0,707],[0,1037],[0,731],[0,750],[0,843],[-593,0],[-790,0],[-791,-1],[-789,0],[-987,0],[-987,0],[-719,0],[-761,0],[-953,0]],[[61603,53543],[0,352],[-1,1015],[0,1235],[0,925],[0,1367],[0,618],[0,939],[-1,1065],[0,1084],[0,502],[-1,777],[0,881],[-1,1147],[0,706],[-1,1059],[0,908],[-1,1221],[0,740],[-1,983],[0,828],[0,838],[-1,1161],[1,708],[-1,779],[0,571],[-1,1327],[0,1190],[-1,1105],[0,883],[-1,662],[0,1139]],[[61592,82258],[116,-108],[45,-73],[49,-45],[90,-107],[91,-61],[101,-86],[176,-63],[55,-49],[63,-30],[46,14],[94,-14],[138,-103],[56,12],[65,-31],[42,12],[112,-8],[165,23],[49,19],[70,-27],[45,-59],[193,-90],[83,-53],[90,-28],[35,-34],[152,-60],[42,24],[72,-39],[83,5],[52,-15],[94,-62],[-10,-40],[22,-74],[83,-84],[7,-42],[57,-44],[134,-73],[-41,-131],[34,-275],[41,-139],[30,-59],[59,-160],[36,-69],[62,-69],[96,-73],[134,-71],[128,7],[59,-7],[71,-48],[75,-32],[87,-89],[49,-26],[49,-66],[-11,-20],[109,-50],[57,-101],[87,-62],[165,-32],[86,-85],[138,-7],[31,23],[63,-77],[74,-42],[113,-42],[44,-42],[-2,-68],[29,-56],[75,-80],[89,-41],[182,-13],[280,61],[30,-12],[219,53],[171,28],[87,47],[84,68],[35,-22],[133,55],[122,89],[54,14],[105,67],[62,59],[37,57],[96,81],[63,-7],[21,41],[62,64],[142,59],[129,222],[34,109],[16,147],[17,37],[14,173],[29,95],[52,127],[28,205],[-25,153],[27,129],[38,86],[93,88],[69,104],[63,110],[34,103],[4,90],[83,47],[65,68],[107,146],[50,87],[41,109],[29,207],[54,100],[46,38],[56,141],[21,110],[-8,49],[-36,55],[-3,53],[26,33],[51,136],[64,250],[8,122],[18,49],[114,213],[52,117],[25,83],[-3,48],[-50,110],[-43,226],[-47,105],[47,11],[41,127],[16,102],[20,338],[60,356],[51,233],[26,82],[50,107],[81,262],[31,160],[44,74],[32,145],[2,152],[41,59],[80,85],[31,93],[-24,67],[38,116],[36,47],[19,139],[-16,70],[-66,105],[-108,286],[-13,129],[-44,227],[-2,101],[-31,196],[0,151],[-68,320],[14,115],[47,211],[32,116],[48,122],[37,131],[10,75],[-22,235],[14,120],[-24,88],[-41,92],[-149,191],[-93,163],[-13,62],[-4,170],[30,182],[25,101],[24,177],[10,167],[49,260],[67,198],[96,129],[37,86],[62,208],[128,197],[34,116],[-13,85],[-26,58],[-55,40],[-24,91],[-45,45],[-19,146],[-20,59],[13,62],[-13,127],[-44,43],[-31,57],[45,136],[67,109],[51,-7],[89,106],[59,14],[63,65],[56,100],[91,289],[26,156],[35,18],[46,-48],[60,-17],[27,61],[-45,36],[-39,-16],[-19,75],[70,17],[69,68],[12,62],[-51,11],[-124,-35],[-23,47],[-83,36],[-60,115],[-112,53],[-34,-46],[-21,-83],[-64,0],[-90,-64],[-81,56],[64,210],[77,194],[97,311],[32,137],[5,56],[32,95],[39,31],[52,132],[165,451],[36,48],[37,94],[73,91],[65,3],[-49,-96],[78,-182],[-5,-89],[40,11],[63,87],[89,-53],[44,62],[-27,77],[-73,102],[-73,20],[1,85],[19,185],[29,194],[38,133],[60,72],[3,67],[32,177],[20,15],[6,73],[41,159],[20,112],[39,91],[74,242],[48,216],[22,188],[-1,196],[-15,63],[49,73],[20,195],[24,50],[-30,176],[-1,75],[-46,176],[23,97],[52,51],[91,53],[57,-23],[78,39],[80,-25],[71,49],[22,-13],[91,82],[25,96],[68,77],[11,60],[34,69],[5,52],[31,73],[-9,34],[37,58],[23,-30],[54,-7],[71,14],[72,64],[76,-100],[73,-16],[43,-45],[-66,-125],[-95,-156],[-54,-24],[-13,-37],[8,-149],[-25,-15],[-22,-69],[6,-58],[107,147],[8,48],[70,68],[35,4],[67,-73],[6,-73],[-23,-53],[33,-29],[37,19],[73,-23],[32,-82],[39,-13],[36,21],[84,-74],[8,-102],[45,-91],[47,-52],[4,-165],[27,-76],[-8,-103],[-30,-107],[28,-108],[-4,-55],[23,-46],[45,-5],[20,-65],[28,-15],[57,-119],[12,-78],[-88,-154],[-14,-133],[31,-42],[-10,-206],[42,-83],[-1,-99],[18,-47],[5,-117],[-5,-142],[8,-78],[-24,-132],[8,-167],[49,-68],[59,-12],[23,-55],[89,-32],[60,-92],[67,-16],[105,8],[161,110],[103,-67],[2,-68],[60,-101],[111,48],[67,-43],[-26,-34],[-61,28],[-60,-47],[-126,-303],[-55,-95],[-46,-108],[-14,-123],[23,-65],[-27,-88],[20,-14],[-31,-109],[-10,-128],[36,-36],[186,-12],[63,-11],[51,-35],[40,-61],[89,-39],[13,-30],[-3,-97],[17,-48],[-7,-171],[58,-66],[8,-44],[86,-64],[42,7],[98,-96],[48,6],[59,-87],[-76,-105],[-16,-125],[-24,-51],[-21,-113],[-26,-36],[-34,-121],[6,-98],[-23,-161],[118,3],[22,65],[103,52],[60,-46],[57,11],[49,50],[65,-3],[-76,-173],[-27,-82],[-8,-70],[35,-26],[-19,-73],[25,-72],[-19,-96],[15,-63],[-16,-44],[-10,-147],[7,-72],[37,-71],[-8,-264],[14,-53],[6,-132],[32,-94],[51,-52],[52,-20],[18,-94],[21,-26],[2,-87],[-28,-94],[-16,-109],[18,-107],[-62,-124],[-34,-176],[-12,-241],[-28,-90],[41,-156],[59,-75],[49,-94],[20,-74],[3,-76],[49,-157],[38,-66],[103,-90],[10,-84],[24,-83],[10,-137],[15,-46],[-9,-176],[19,-98],[46,-112],[49,-238],[49,-130],[46,-93],[54,-80],[136,-128],[104,-35],[65,6],[48,-36],[29,29],[57,-8],[85,23],[103,46],[85,64],[79,121],[35,1],[70,99],[60,102],[14,79],[0,112],[-12,44],[51,22],[40,-45],[29,14],[61,-96],[58,-6],[52,-32],[80,19],[32,34],[45,6],[52,54],[75,24],[87,108],[75,192],[69,-17],[37,-94],[49,-86],[39,-20],[52,-74],[-38,-145],[16,-67],[5,-101],[94,7],[50,27],[-17,-86],[-40,-120],[-13,-157],[15,-44],[76,-54],[70,-148],[75,-13],[118,13],[30,20],[16,-142],[66,-17],[74,-48],[110,14],[66,-15],[30,-70],[12,-89],[40,2],[20,-59],[-9,-38],[13,-116],[40,-36],[82,-11],[11,-74],[36,-53],[167,-28],[38,-49],[72,-45],[104,-27],[26,14],[102,10],[-27,-103],[10,-47],[103,-130],[40,-84],[41,-26],[42,31],[92,1],[-12,-96],[-143,-179],[-99,-204],[-34,-99],[10,-161],[57,-163],[21,-26],[100,-7],[43,37],[10,60],[52,-106],[-99,-80],[-58,-63],[-17,-40],[36,-60],[-30,-58],[6,-39],[-66,-70],[-53,-119],[3,-61],[38,5],[36,-49],[15,-105],[-19,-87],[41,-68],[42,22],[36,-44],[21,-116],[-29,-28],[7,-122],[38,-28],[2,-38],[68,-135],[18,-129],[-40,-129],[14,-79],[47,-27],[-52,-161],[4,-58],[114,-88],[58,-98],[16,-77],[39,-33],[33,-82],[0,-83],[28,-53],[-40,-95],[2,-43],[-35,-90],[-1,-137],[60,-30],[3,-76],[26,-15],[-10,-104],[-68,-48],[-77,-144],[-14,-115],[19,-35],[-31,-133],[14,-105],[41,-28],[89,-6],[10,-112],[97,-167],[33,-96],[107,-137],[38,-126],[102,-41],[72,-90],[47,-25],[4,-65],[28,-54],[90,-68],[56,-133],[74,-77],[-24,-55],[0,-59],[40,-47],[75,48],[69,87],[33,-5],[23,-73],[46,-11],[67,57],[48,70],[66,-78],[-63,-112],[16,-39],[-73,-99],[-37,-171],[2,-104],[59,-69],[32,-92],[47,-36],[10,-79],[31,-45],[-1,-100],[14,-23],[8,-107],[28,-18],[27,-65],[32,-151],[30,-72],[36,-39],[28,-63],[65,-51],[-22,-150],[7,-63],[26,-34],[-21,-134],[53,-113],[61,-57],[49,-87],[12,-86],[21,-40],[-44,-46],[-44,-88],[-22,-107],[20,-130],[-42,-52],[-9,-48],[35,-42],[-14,-40],[35,-80],[-35,-94],[-7,-128],[-15,-57],[3,-78],[-55,-69],[-34,-91],[-45,-72],[-19,-98],[-55,-112],[-1,-159],[26,-191],[20,-82],[57,-60],[131,-201],[83,-59],[56,-88],[28,-155],[54,10],[-8,-88],[63,4],[36,-52],[79,-15],[81,-41],[46,-42],[36,4],[41,-102],[-18,-176],[-45,-102],[5,-51],[-48,-129],[-41,-173],[-24,-189],[8,-135],[30,-74],[97,-138],[15,-54],[66,-32],[41,-93],[62,-30],[80,-145],[46,-60],[32,1],[53,-59],[57,-13],[65,-55],[55,-80],[85,-17],[76,-67],[57,-17],[91,-53],[89,37],[120,-22],[14,-106],[26,-49],[62,-31],[77,-17],[2,-54],[60,-73],[61,-25],[156,37],[41,29],[69,130],[6,44],[81,56],[13,-95],[34,-45],[0,-57],[-32,-5],[3,-73],[48,-135],[114,-135],[-9,-29],[39,-77],[21,47],[123,-15],[64,-35],[58,15],[31,-42],[86,34],[54,41],[138,-36],[70,5],[53,-25],[77,16],[52,104],[28,-142],[42,-114],[65,-63],[49,-107],[21,-1],[46,-109],[50,-259],[47,-6],[33,-95],[-40,-27],[-36,-105],[35,-98],[72,-93],[74,-60],[26,-62],[92,-39],[57,16],[80,-4],[20,31],[-21,126],[-43,44],[-1,39],[35,105],[-15,47],[171,-5],[54,-55],[11,-175],[29,-180],[57,-99],[69,-80],[61,-45],[154,-18],[41,34],[23,60],[138,20],[34,-116],[40,-49],[126,-51],[59,38],[85,-43],[39,-75],[68,0],[5,-90],[-52,-15],[-46,-59],[22,-50],[114,-71],[-16,-65],[63,-33],[43,-78],[46,-13],[6,-38],[116,-32],[97,-10],[47,68],[30,2],[19,54],[-60,45],[-7,114],[28,43],[55,-15],[65,-79],[71,-10],[46,65],[22,-136],[50,-73],[-2,-46],[39,-59],[-22,-63],[35,-16],[40,-56],[47,18],[-12,71],[42,52],[-1,-115],[38,-13],[17,-53],[33,8],[-10,-160],[82,63],[54,-24],[51,41],[-2,65],[51,-20],[6,-82],[52,-32],[-68,-59],[61,-47],[52,-18],[62,-94],[-18,-64],[19,-71],[-7,-66],[52,-98],[56,-67],[5,-47],[98,-94],[-10,-41],[-67,-26],[-19,53],[-70,-13],[-27,73],[-51,7],[5,85],[-21,35],[25,63],[-35,60],[-57,18],[-39,-48],[19,-99],[-48,-42],[-67,-13],[-53,63],[-42,-22],[40,-46],[-21,-113],[-61,-94],[-44,-97],[59,-49],[5,-70],[29,-52],[46,-7],[-2,-63],[-28,-24],[64,-56],[-4,-83],[109,-46],[14,-93],[52,-40],[68,-3],[-34,-81],[54,-75],[26,-60],[-12,-74],[103,44],[11,-62],[71,-44],[22,26],[135,-25],[55,-61],[58,44],[49,-28],[-14,-72],[-37,21],[-20,-138],[26,-53],[83,37],[60,-4],[66,-81],[47,23],[60,-20],[-4,-45],[31,-63],[41,9],[57,-130],[49,19],[-20,-184],[-56,-19],[11,-52],[-24,-93],[8,-79],[42,-92],[-37,-80],[15,-50],[48,63],[81,56],[20,-78],[73,-44],[4,-168],[44,-42],[0,-109],[-48,-77],[92,12],[13,-45],[-99,-7],[-12,-37],[6,-93],[-22,-47],[32,-66],[48,56],[87,4],[17,-44],[72,30],[-28,-125],[51,-30],[95,-31],[23,-66],[49,128],[40,2],[4,-111],[-31,-57],[-49,-41],[-32,-86],[-1,-60],[39,-87],[9,-148],[-61,-71],[-6,-137],[16,-41],[60,-36],[21,-53],[-23,-110],[9,-158],[37,-86],[19,-92],[53,-60],[32,-71],[-16,-138],[64,-179],[26,-19],[10,-129],[37,-143],[69,-94],[-9,-62],[68,-45],[68,-101],[14,-77],[83,23],[52,-28],[44,27],[83,-81],[-43,-34],[-8,-127],[19,-27],[48,48],[32,122],[65,-5],[43,-66],[55,-44],[47,-146],[46,-81],[82,-48],[13,-39],[87,-54],[70,-143],[62,-147],[35,49],[-49,109],[-21,111],[1,49],[-44,71],[-28,123],[-25,31],[-57,169],[-66,166],[34,3],[5,65],[-35,22],[7,121],[35,66],[29,135],[50,109],[56,32],[45,63],[48,-13],[26,54],[65,-26],[49,-44],[15,-92],[55,-153],[102,-81],[14,-137],[86,-62],[-33,-47],[-4,-60],[54,-30],[55,-60],[188,-49],[4,-34],[55,-28],[28,-44],[170,-121],[5,-47],[48,-7],[54,-72],[62,-11],[75,-35],[105,-72],[53,-17],[63,7],[-61,127],[4,55],[-40,59],[9,26],[-57,81],[17,137],[-17,72],[17,93],[64,105],[49,-40],[98,-8],[49,-47],[-20,-106],[49,-97],[29,40],[-47,97],[73,15],[18,-150],[39,-78],[107,-20],[29,-68],[-46,-17],[-26,-44],[-6,-78],[-69,22],[-32,44],[-71,13],[43,-136],[43,-63],[72,-8],[13,-72],[-18,-54],[13,-46],[47,-12],[4,102],[34,39],[9,55],[-20,87],[57,-8],[25,-74],[-16,-52],[-16,-141],[15,-98],[58,-6],[-1,-70],[66,-40],[-45,-202],[-16,-133],[-22,-92],[-22,-155],[-3,-142],[9,-61],[-33,-57],[-22,-320],[-40,-114],[-3,-93],[29,-19],[29,-70],[44,8],[2,-116],[-10,-24],[43,-66],[25,27],[31,-102],[-12,-63],[-96,-105],[17,-36],[0,-101],[56,-185],[48,-80],[90,-115],[-26,-65],[-27,-15],[-111,17],[10,-50],[92,-57],[82,-17],[15,-96],[116,88],[64,-26],[-1,-143],[32,28],[6,104],[129,-46],[9,-64],[34,-98],[70,-46],[58,-54],[64,-42],[29,-69],[-22,-46],[55,-40],[29,-73],[-37,-62],[56,-21],[-6,-64],[20,-59],[52,-30],[90,28],[53,-50],[47,-10],[23,-61],[97,-12],[36,-143],[52,-90],[120,-91],[55,-65],[20,-114],[-25,-63],[43,-45],[33,38],[53,10],[-88,89],[-10,65],[72,-1],[84,-56],[105,-49],[-90,-34],[49,-71],[-4,-78],[73,4],[10,99],[45,28],[87,8],[62,-80],[62,-43],[13,98],[-18,42],[-59,56],[-61,37],[-5,86],[87,3],[66,-34],[39,-50],[91,-73],[47,-6],[6,56],[52,-22],[-2,-120],[49,-190],[42,-70],[65,-64],[126,-26],[144,-185],[31,-155],[34,-98],[39,-165],[60,-193],[86,-188],[57,-73],[80,-152],[137,-176],[78,-60],[33,-7],[71,-57],[52,-68],[121,-90],[133,-50],[60,30],[88,-82],[19,-52],[85,-82],[68,-170],[22,-190],[-15,-101],[13,-80],[52,-122],[68,-121],[49,-125],[63,-73],[115,-79],[-44,-66],[-91,20],[-21,-45],[63,-17],[49,12],[65,-107],[65,-82],[147,-65],[101,-6],[91,18],[19,60],[35,-13],[14,-85],[47,-22],[125,1],[27,-33],[-31,-63],[14,-89],[25,-64],[-19,-38],[15,-68],[-49,-104],[-67,-40],[-36,-78],[28,-43],[30,60],[47,34],[55,8],[37,65],[49,-35],[-19,-54],[-50,-26],[-64,-78],[22,-94],[-17,-47],[-71,-54],[12,-49],[-2,-116],[36,-12],[22,-88],[-11,-36],[26,-53],[-35,-42],[73,-64],[-26,-37],[18,-54],[41,-8]],[[81863,76922],[-40,72],[7,56],[-30,77],[8,53],[64,-79],[103,3],[10,-40],[-50,-157],[-1,-50],[35,-25],[39,-90],[63,-22],[18,-66],[-36,-13],[35,-66],[37,-19],[-62,-96],[-4,-113],[-53,-25],[-38,19],[-97,-5],[-69,37],[-24,79],[-28,40],[16,101],[-14,65],[-61,87],[-62,125],[-78,42],[-48,46],[-73,111],[91,42],[48,-3],[53,-31],[41,-51],[76,-49],[69,-19],[55,-36]],[[64541,81883],[-80,-13],[-31,96],[26,75],[116,109],[21,41],[4,73],[57,52],[0,42],[121,80],[47,54],[58,-15],[75,42],[57,0],[82,23],[111,-4],[59,54],[96,47],[55,67],[136,-42],[31,-54],[77,-82],[64,-4],[54,-85],[4,-97],[28,-65],[-60,-9],[-13,44],[-60,3],[-153,-109],[-39,82],[-6,83],[-86,41],[-35,-87],[-69,2],[-51,-48],[17,-32],[65,-2],[11,-39],[-51,-15],[-53,10],[-21,-216],[-57,-3],[22,-110],[-86,-20],[-22,82],[-35,24],[-59,-102],[-15,-59],[-30,4],[-64,-64],[-29,-62],[-61,-14],[-58,28],[-86,-21],[-28,69],[-45,7],[-11,139]],[[94221,60586],[22,-22],[20,-94],[13,-120],[-33,-43],[-10,-74],[-40,39],[-48,3],[-53,-59],[-24,5],[-71,82],[-109,233],[-53,96],[-58,13],[-11,32],[-113,78],[-34,154],[-49,51],[-46,116],[-10,106],[49,12],[22,74],[60,-13],[41,23],[101,-120],[54,-7],[87,-59],[101,-1],[88,51],[1,-113],[-25,-107],[0,-132],[27,-37],[7,-65],[39,-60],[42,0],[13,-42]],[[94433,60034],[-7,103],[-61,0],[-26,150],[117,-112],[51,-159],[-35,-48],[-39,66]],[[99217,56703],[96,-37],[0,-193],[-63,-149],[-146,-394],[-153,-388],[-189,-529],[-68,-223],[-36,-160],[-17,-151],[8,-101],[22,-109],[-28,-106],[-70,-11],[-49,30],[-35,52],[-19,79],[-29,34],[-14,130],[-43,124],[1,81],[-19,54],[-50,53],[15,104],[88,126],[8,78],[-9,107],[53,115],[65,90],[42,112],[-3,77],[-25,131],[18,59],[-17,99],[-59,-18],[-48,13],[7,54],[76,100],[98,56],[144,134],[84,98],[84,136],[78,167],[9,162],[-21,56],[-117,212],[-52,51],[-80,56],[148,201],[71,66],[92,56],[41,-6],[-16,-342],[3,-119],[23,-128],[34,-95],[67,-94]],[[99436,48978],[21,74],[34,18],[40,173],[-1,57],[37,19],[72,-84],[111,-31],[34,-34],[-37,-74],[-63,-187],[-68,-246],[-30,-157],[-21,-178],[-69,-79],[-33,6],[-16,50],[-30,47],[23,43],[-6,94],[54,59],[-36,101],[16,44],[-11,171],[9,64],[-30,50]],[[98781,50834],[57,-255],[56,-166],[48,-90],[20,-74],[-24,-44],[-74,-12],[-31,84],[-49,56],[-9,55],[-80,65],[-21,79],[-33,30],[33,107],[-38,72],[7,39],[112,78],[26,-24]],[[99512,48090],[3,-103],[-54,-93],[-4,105],[55,91]],[[39502,36268],[0,991],[0,1812],[0,1391],[0,3863],[0,2784],[0,4162],[-1,1188],[0,1078]],[[39501,53537],[751,0],[540,0],[899,0],[870,0],[692,0],[525,0],[672,0],[872,0],[798,0],[857,0],[711,0],[410,0],[847,0],[653,0],[952,0],[549,0],[929,0],[688,0],[796,0],[533,0],[601,0],[880,0],[689,0],[1089,1],[1024,1],[614,1],[819,1],[637,0],[591,1],[614,1]],[[68890,16932],[-156,24],[-70,-9],[-77,29],[-84,-23],[-45,11],[-55,-35],[-125,16],[-134,-25],[-49,57],[-86,41],[-88,18],[-46,47],[-87,49],[-67,91],[-87,73],[-83,17],[-107,98],[-43,118],[-79,147],[-23,70],[-125,237],[-104,147],[-98,118],[-175,142],[41,47],[-4,55],[-54,70],[-75,51],[-41,55],[-67,29],[-43,-41],[-84,66],[-84,114],[-40,33],[-49,88],[-51,44],[-58,118],[-84,93],[-87,140],[-95,196],[-42,44],[31,54],[58,-10],[43,57],[3,64],[-32,89],[-39,49],[-54,16],[-12,86],[7,67],[-50,71],[-71,59],[-56,69],[13,50],[51,5],[126,94],[79,32],[96,93],[78,137],[28,168],[-2,246],[-38,175],[-60,220],[-83,267],[-192,475],[-133,275],[-158,283],[-99,158],[-164,234],[-173,220],[-204,232],[-152,159],[-139,133],[-268,227],[-174,134],[-199,134],[-153,89],[-174,77],[-123,45],[-138,26],[-50,-59],[-147,-34],[-79,-103],[15,-34],[-90,-55],[-106,-103],[-103,27],[-130,9],[-51,-34],[-270,7],[-85,-10],[-105,-62],[-77,-10],[-65,12],[-89,48],[-81,66],[-4,62],[53,65],[19,63],[113,130],[60,-16],[74,41],[163,114],[125,242],[100,67],[70,13],[74,47],[18,117],[-10,125],[35,23],[29,75],[3,83],[-14,116],[10,29],[-5,129],[69,142],[54,144],[-20,115],[2,61],[-30,95],[-54,246],[32,116],[-2,68],[-25,41],[66,60],[27,-26],[-14,-88],[15,-32],[60,-6],[25,77],[-25,90],[-37,62],[-79,49],[-53,74],[-101,88],[28,67],[-88,143],[-103,63],[-29,46],[-50,130],[-69,44],[-99,97],[-14,122],[-44,145],[-37,61],[14,66],[-21,103],[-67,109],[-89,6],[21,103],[-20,89],[-32,53],[-139,180],[-52,-26],[-55,-91],[-37,-96],[-9,-61],[-45,-41],[-18,-78],[48,-70],[-35,-195],[-51,-63],[-100,-89],[-72,-96],[-42,-190],[-33,-66],[-3,-159],[-20,-95],[76,-51],[-52,-94],[-23,-67],[10,-81],[-29,-83],[-26,-156],[12,-20],[-77,-98],[-78,-197],[-39,-209],[-26,-39],[-40,-118],[16,-129],[-91,-26],[54,-108],[-13,-57],[38,-33],[-66,-51],[-108,-51],[-16,-53],[-108,-8],[-67,66],[-137,88],[-83,12],[-24,-17],[-106,57],[-107,7],[-125,-68],[-52,-41],[-45,-104],[-83,-1],[-99,29],[-54,-17],[-66,-57],[-51,-78],[-5,-65],[-109,-39],[-234,63],[-116,-2],[-78,-88],[-7,-45],[-51,-6],[-5,-40],[-109,-11],[-42,-44],[-30,41],[-48,15],[-52,96],[41,63],[0,120],[48,-13],[59,30],[12,68],[96,68],[33,104],[31,49],[-11,74],[-55,120],[93,90],[-5,60],[21,79],[86,89],[-8,70],[95,-20],[71,-45],[200,9],[102,46],[55,-12],[134,33],[33,-20],[34,-72],[41,-22],[65,5],[34,-61],[36,-12],[84,36],[96,96],[20,63],[5,240],[42,144],[5,74],[25,85],[11,127],[32,65],[9,73],[-6,124],[-77,192],[27,118],[-16,136],[-32,28],[-56,-41],[-40,-91],[-33,57],[58,70],[22,92],[61,1],[25,80],[4,85],[36,75],[-4,109],[8,170],[-41,106],[-47,65],[-37,94],[164,13],[25,81],[42,60],[59,136],[-20,65],[-69,64],[68,37],[12,53],[94,109],[71,42],[-4,59],[-69,76],[37,35],[64,102],[207,194],[25,92],[90,123],[60,36],[91,131],[66,46],[43,93],[33,27],[65,2],[43,41],[70,-2],[28,75],[-94,16],[13,109],[-84,212],[-95,127],[9,96],[21,18],[-5,112],[-49,-20],[-45,38],[-62,91],[-11,77],[63,164],[102,72],[78,34],[43,-8],[27,50],[45,-13],[45,52],[60,4],[40,-52],[75,77],[15,66],[-44,34],[14,78],[-57,126],[-46,38],[-85,19],[-32,32],[14,50],[-44,127],[-38,223],[-30,64],[-26,157],[3,75],[96,64],[-54,36],[-80,87],[-109,51],[41,28],[17,80],[-155,168],[39,79],[8,62],[-102,27],[5,70],[-81,-1],[21,-81],[16,-133],[-34,-234],[16,-51],[-14,-81],[53,25],[89,-106],[-33,-105],[33,-155],[1,-59],[-44,-56],[16,-69],[-23,-67],[-88,17],[-10,-36],[19,-72],[40,-70],[22,-74],[-90,-6],[-62,15],[-22,50],[-51,43],[-75,26],[-65,-23],[-56,-48],[-40,-73],[1,-111],[-54,-29],[-93,-127],[-2,-27],[-105,-74],[-74,-27],[-49,-72],[-9,-200],[-78,-166],[-58,-73],[-15,-144],[17,-101],[-57,-113],[-1,-72],[-86,-63],[-72,-141],[-48,-191],[-31,-27],[-29,-94],[-105,-167],[-67,-29],[-35,-53],[-107,-31],[-134,6],[-86,-34],[-23,-30],[-86,-19],[-98,-90],[-229,-129],[-142,-15],[-53,-85],[-123,-16],[-90,-89],[-114,-65],[-126,-36],[-53,-76],[13,-53],[-161,-120],[-102,-62],[-55,-11],[-208,-195],[-40,-94],[18,-60],[-56,-85],[-19,-104],[-57,-42],[-86,-134],[-14,-87],[-97,-121],[-79,-79],[-140,-27],[-56,-65],[-11,-53],[39,-75],[-68,-68],[68,-12],[-14,-75],[19,-28],[-28,-149],[-27,-16],[-58,49],[3,59],[-36,20],[-84,-7],[-27,-79],[-85,-18],[-61,12],[-64,-59],[-68,-171],[18,-72],[50,1],[3,-75],[-50,14],[-44,42],[-84,-61],[-15,-90],[-1,-150],[63,-18],[-2,-121],[-79,23],[-90,-89],[-59,-85],[119,-27],[65,35],[89,9],[81,111],[59,23],[17,-71],[56,2],[16,41],[1,126],[40,-30],[15,-74],[-27,-56],[6,-55],[-25,-85],[-84,-64],[8,-87],[31,-90],[42,-72],[-11,-69],[36,-72],[-47,-39],[-59,-8],[-46,19],[-31,114],[-47,35],[-113,52],[-41,117],[-74,40],[-131,34],[-125,-26],[-26,-128],[-33,-49],[-10,-68],[-72,28],[-88,-7],[10,95],[-46,88],[-128,145],[3,13],[-128,128],[-18,55],[-49,67],[-161,135],[-72,38],[-84,20],[9,93],[-18,64],[-45,60],[-62,35],[-53,89],[-59,50],[-59,25],[-65,-35],[-70,1],[-109,-107],[-7,102],[9,86],[33,26],[6,54],[67,112],[42,34],[12,61],[36,-1],[15,-185],[112,-46],[83,4],[46,-55],[-37,-62],[14,-39],[111,-46],[2,-86],[25,-50],[75,-10],[4,-43],[134,22],[8,42],[66,-3],[96,19],[-137,73],[-72,-49],[30,101],[4,100],[-106,59],[-10,-61],[32,-74],[6,-77],[-61,-20],[26,84],[-11,61],[-43,66],[3,42],[41,47],[-18,165],[-71,62],[15,114],[-22,47],[9,71],[-21,169],[-18,82],[-71,180],[-56,82],[-51,16],[-75,67],[83,98],[-5,88],[20,43],[-30,113],[4,58],[-45,105],[-59,92],[-70,85],[-43,138],[-47,-1],[-84,128],[-114,96],[-35,60],[-103,123],[-101,81],[-118,77],[-44,45],[-182,136],[-11,119],[56,136],[-7,130],[-42,227],[-41,148],[-62,162],[-102,63],[-51,97],[-126,78],[-60,52],[134,6],[-1,103],[-44,74],[-81,36],[-81,-4],[-80,64],[-105,-62],[44,-84],[73,-25],[44,6],[49,-85],[-28,-63],[-58,81],[-87,77],[-64,8],[-15,26],[-86,59],[-139,51],[-85,-13],[-75,-73],[-39,-8],[-22,147],[-50,45],[-20,50],[-61,22],[-66,108],[-43,-22],[2,-70],[80,-105],[42,18],[35,-61],[59,-20],[-11,-66],[7,-91],[-51,-27],[-27,37],[-141,105],[17,43],[-19,133],[-16,2],[-38,130],[-35,35],[-57,14],[-75,-47],[-55,66],[4,39],[46,20],[56,-19],[38,84],[-9,73],[-56,96],[-43,23],[-84,-29],[-20,60],[-68,-36],[-49,41],[14,92],[54,21],[80,58],[16,74],[-45,143],[-71,105],[-76,85],[74,33],[42,-29],[93,5],[48,-53],[84,-37],[-24,-64],[19,-77],[37,1],[47,43],[1,57],[80,98],[20,61],[37,30],[-9,45],[26,71],[-28,24],[-12,136],[-29,107],[-39,71],[-165,207],[-49,41],[-110,46],[-79,-11],[-19,-37],[-91,31],[-85,-48],[-38,-43],[-1,-47],[-113,35],[-59,-6],[-67,-99],[-65,-28],[-49,88],[37,76],[-29,64],[42,126],[-3,58],[54,10],[-3,-75],[78,-17],[69,51],[13,61],[-43,29],[-81,193],[-52,41],[-32,78],[-103,125],[-46,13],[-24,-58],[-58,-32],[-45,93],[-5,88],[-94,26],[-79,7],[26,111],[-56,65],[3,83],[-175,70],[-46,-34],[-21,-78],[26,-62],[-119,-74],[-34,45],[-68,16],[19,52],[-65,85],[-36,-6],[-28,-50],[-124,-57],[5,-93],[63,-11],[-1,-69],[-43,-10],[-180,55],[-140,-10],[-50,-69],[-64,44],[-130,61],[-105,3],[-90,108],[-110,92],[-116,64],[-61,-43],[-21,77],[-66,56],[-31,-1],[-77,57],[-136,127],[-170,105],[-83,31],[-74,-21],[-70,16],[-49,-19],[-89,47],[-86,22],[-157,-2],[-131,-35],[-56,-43],[-43,-99],[-98,-22],[-39,-29],[-95,-14],[-19,-44],[-141,16],[-17,-26],[-232,43],[-60,46],[-52,69],[-33,76],[-109,114],[-177,123],[-100,93],[-125,98],[-131,86],[-10,22],[-121,103],[-294,192],[-278,164],[-221,120],[-578,291],[-142,61],[-94,26],[-47,-2],[-117,-81],[-60,-93],[-76,-49],[-214,-89],[-91,-30],[-138,-63],[-135,-29],[-139,3],[-152,17],[-258,45],[-104,-20],[-90,-2],[-146,28],[-207,0],[-172,31],[-130,-19],[-158,10],[-92,-30],[-246,1],[-122,-15],[-79,7],[-129,-21],[-48,-26],[-82,-13],[-155,1],[-218,-26],[-161,1],[-216,-19],[-233,-44],[-154,-10],[-199,-35],[-232,-20],[-135,-28],[-221,-22],[-117,-36]],[[60536,24473],[171,13],[-11,-75],[-54,5],[-94,-85],[33,-72],[82,19],[61,-13],[4,-44],[-92,-72],[-5,-42],[-62,-64],[0,-37],[60,-31],[59,13],[102,-24],[158,12],[117,36],[57,-104],[-32,-21],[-113,-123],[12,-87],[47,17],[65,-16],[45,27],[-36,45],[-82,-1],[34,50],[107,-19],[73,16],[98,111],[4,92],[33,34],[162,-9],[179,-70],[55,-61],[-4,-53],[53,-70],[76,-50],[10,-43],[-31,-43],[-112,-99],[-60,-71],[-45,5],[-208,115],[-68,15],[-67,-32],[-84,38],[-110,19],[-150,-3],[-41,-73],[-155,-22],[-101,-63],[-36,-44],[-19,-98],[45,-72],[-37,-103],[-51,-28],[-110,-25],[-81,-89],[-46,-4],[-54,-46],[-196,174],[-31,50],[-193,25],[-36,-8],[-54,34],[-141,21],[-36,-20],[-18,-87],[-75,-32],[-36,-40],[-70,47],[-133,-26],[-127,27],[-79,-27],[-53,1],[-70,-51],[-135,79],[-69,-7],[-39,-51],[-82,15],[-18,-37],[-118,-4],[-47,23],[-46,99],[-90,120],[-68,33],[-51,-20],[-58,37],[0,52],[-93,108],[-23,63],[26,55],[50,25],[-9,63],[45,101],[-12,90],[33,50],[102,0],[167,28],[51,52],[82,-4],[68,37],[12,35],[185,18],[221,59],[152,3],[142,17],[130,49],[51,68],[50,-9],[55,35],[48,-10],[73,53],[81,11],[87,42],[24,30],[176,-33],[57,8],[107,-25],[109,46],[40,-44],[87,27],[44,44]],[[39501,87294],[-2,-1165],[-1,-516],[0,-752],[0,-542],[0,-803],[0,-1027],[0,-591],[0,-981],[0,-560],[0,-1033],[0,-2235],[0,-774],[0,-991],[0,-595],[0,-986],[0,-5026],[0,-709],[0,-1926],[0,-1155],[0,-2350],[0,-1273],[0,-1158],[0,-958],[0,-4626],[0,-1025],[3,0]],[[39502,36268],[-95,-22],[-165,-70],[-109,-68],[-119,-56],[-120,-89],[-118,-65],[-111,-76],[-47,-52],[-112,-37],[-16,-26],[-115,-30],[-33,-32],[-156,-81],[-75,-49],[-61,-10],[-320,-160],[-330,-121],[-226,-103],[-372,-110],[-59,-4],[-198,-52],[-22,2],[-205,-55],[-162,-59],[-49,-34],[-85,-23],[-90,-48],[-73,-71],[-91,-7],[-337,-96],[-46,-25],[-216,-40],[-61,-21],[-108,1],[-153,-18],[-122,-5],[-274,-44],[-242,0],[-184,18],[-103,-42],[-142,-7],[-187,23],[-100,3],[-243,35],[-139,25],[-138,54],[-166,36],[-117,45],[-63,10],[-121,-25],[-98,-73],[-98,-36],[-91,24],[-31,-18],[-113,-23],[-68,-26],[-229,-149],[-139,-82],[-247,-201],[-52,-34],[-89,-95],[-69,-45],[-143,-139],[-61,-40],[-123,-37],[-22,-27],[-132,-53],[-125,-14],[-183,-72],[-133,-69],[-287,-190],[-50,-43],[-188,-40],[-50,-77],[-117,-63],[-74,-59],[-68,-104],[-57,-44],[-81,-35],[-58,-47],[-176,-87],[-154,-34],[-171,-27],[-389,-51],[-158,-41],[-97,-33],[-120,-64],[-172,-118],[-162,-182],[-113,-168],[-55,-124],[-48,-200],[-71,-197],[-47,-99],[-85,-256],[-30,-169],[-16,-213],[-44,-62],[-65,-21],[-17,-31],[-89,-13],[-60,-52],[10,-77],[-47,-19],[-105,-75],[-88,-101],[-43,-76],[-25,-156],[21,-56],[-28,-45],[-65,-14],[-63,-60],[-88,-45],[-56,-99],[-106,-5],[-72,-65],[-35,-98],[-85,-23],[-9,59],[-53,37],[-183,52],[-133,-16],[-68,-60],[-10,-49],[-83,-119],[-42,-5],[-49,-61],[-69,21],[-29,-29],[-120,-54],[9,92],[-29,30],[6,92],[-85,146],[-149,100],[-121,21],[-26,-72],[-99,-22],[-55,9],[-92,-10],[-185,-62],[-44,61],[-111,36],[-80,-43],[-196,9],[-135,-35],[-49,-58],[25,-74],[-33,-25],[-48,47],[-125,-12],[-152,65],[-111,22],[-99,-9],[-175,-104],[-48,-58],[30,-66],[-76,-44],[-62,29],[-68,-37],[-204,-31],[-9,75],[22,38],[-82,235],[-135,175],[-55,40],[-49,11],[-47,-25],[-88,7],[-75,-39],[-38,-108],[-127,-14],[-122,-64],[-107,91],[-102,49],[-56,-1],[-39,-65],[-38,-11],[-34,44],[-116,86],[-82,46],[-51,12],[-66,-43],[-52,35],[-110,24],[-25,-22],[-72,27],[-93,10],[-32,-38],[-74,21],[-47,-12],[-6,-43],[-68,-35],[-125,25],[-44,-5],[-48,-67],[-54,3],[-86,44],[-76,6],[-49,-35],[-74,9],[-70,-11],[-13,-30],[-170,26],[-56,-12],[-118,30],[-70,-31],[-81,-68],[-72,9],[-164,-22],[-75,23],[-102,-19],[-93,18],[-97,-32],[-13,-86],[-65,-19],[-154,-108],[-89,-12],[-86,32],[-238,56],[-168,28],[-154,-14],[-121,-46],[-14,22],[-170,66],[-81,-41],[-53,-2],[-18,-53],[-90,-66],[-48,22],[-185,-2],[-113,-63],[-57,-110],[-76,-44],[-43,-60],[-54,-2],[-76,-58],[-28,4],[-72,-49],[-14,-40],[-87,-76],[-41,-58],[15,-54],[-82,-85],[-57,-86],[-40,-88],[-27,-97],[-12,-109],[21,-107],[52,-24],[27,-44],[72,15],[4,-39],[-83,-11],[-49,-51],[-89,14],[29,37],[-24,54],[-73,-10],[-27,37],[-69,-24],[-56,-143],[29,-35],[-10,-83],[-36,-21],[-3,-54],[-67,32],[26,35],[-49,51],[-90,2],[-61,-28],[-14,-64],[14,-102],[-66,-28],[-15,-43],[-61,89],[-114,53],[-26,-28],[-54,6],[-34,48],[-160,57],[-208,23],[-123,-12],[-64,-30],[-14,-111],[-137,-1],[-99,-32],[-109,-82],[-55,-105],[14,-61],[79,-44],[-56,-37],[-26,-54],[-70,-57],[-35,7],[-97,-45],[-40,-64],[-61,11],[-48,-33],[-113,-21],[-194,-94],[-57,-43],[-70,-84],[-43,-89],[-28,-111],[3,-100],[64,-16],[7,-47],[-86,-32],[-148,34],[-76,-46],[-99,10],[-95,-39],[-32,-40],[-69,-10],[-22,-80],[98,-43],[-42,-137],[-41,30],[-20,54],[-163,30],[-98,-39],[-29,-49],[-99,-6],[-24,20],[-95,-8],[45,107],[-3,75],[-73,29],[-7,-111],[-68,-112],[2,-57],[-150,26],[-25,-54],[14,-34],[62,-28],[74,-58],[63,22],[11,-34],[98,-24],[-63,-79],[-150,8],[-64,32],[-85,78],[-197,97],[-187,22],[-73,-49],[14,-66],[-35,-19],[-22,-72],[16,-37],[-51,-25],[-18,50],[-114,87],[-88,41],[-78,-49],[-30,46],[-140,92],[-152,76],[9,52],[80,-15],[77,-44],[64,15],[60,62],[-26,72],[-34,18],[-83,-54],[-41,34],[-88,12],[-27,-64],[-54,-15],[-24,-60],[-6,-86],[-96,56],[-50,14],[-42,-25],[-103,36],[-55,-6],[-51,-32],[-1,-45],[-37,-36],[-113,70],[-80,-14],[-84,38],[-54,-15],[-112,33],[-81,-52],[-22,-83],[-97,48],[-64,-9],[-68,24],[-43,47],[-92,37],[-89,-29],[-18,-46],[-61,34],[-121,-67],[-72,15],[-58,45],[-35,-7],[-144,88],[-78,-14],[-55,15],[-125,107],[-120,73],[-262,182],[-110,49],[-76,17],[-153,57],[-93,-15],[-169,37],[-63,-12],[6,69],[-44,94],[-65,79],[-15,102],[-211,246],[-167,183],[-160,164],[-159,154],[-194,158],[-79,44],[-39,-2],[-56,58],[-84,36],[-81,71],[-87,58],[-118,60],[-134,34],[-129,14],[-109,-10],[-123,-34],[-8,60],[57,35],[-49,34],[-25,-53],[6,-48],[25,-44],[-7,-77],[-28,-53],[-46,-1],[-63,109],[-212,234],[17,58],[-20,45],[36,66],[-49,188],[-67,114],[30,61],[-17,40],[9,160],[-52,165],[30,25],[-22,220],[-11,32],[38,65],[15,166],[-28,96],[10,27],[-44,154],[38,20],[22,79],[37,30],[34,79],[-55,219],[-4,97],[79,-43],[48,-1],[19,-36],[62,-37],[31,-47],[20,-84],[33,-36],[210,-84],[136,-17],[111,9],[191,65],[63,42],[72,72],[256,349],[69,81],[73,169],[47,172],[41,68],[75,36],[23,66],[9,328],[14,171],[-21,231],[-27,202],[-26,130],[-15,122],[-47,175],[-62,518],[59,215],[57,54],[128,172],[24,-53],[-8,-53],[-98,-50],[-79,-123],[12,-105],[61,-163],[2,-80],[45,-80],[4,-40],[75,-46],[10,85],[-40,44],[6,38],[-39,113],[-31,38],[0,75],[-43,57],[8,61],[81,-88],[63,27],[38,-37],[56,57],[22,103],[-35,13],[-9,69],[-87,-3],[-2,86],[-26,56],[40,14],[45,125],[9,111],[-10,92],[-80,118],[52,17],[20,44],[-7,86],[-22,33],[-71,15],[-8,84],[67,4],[74,80],[-1,80],[32,49],[16,76],[-29,57],[3,75],[-21,29],[14,72],[-59,155],[98,80],[21,51],[94,-38],[10,53],[64,36],[-17,47],[-63,8],[-29,-72],[-45,-14],[-46,46],[1,-107],[-57,1],[9,152],[3,221],[-17,204],[-51,86],[11,92],[-35,143],[-66,161],[-13,68],[-53,93],[-67,165],[-82,149],[-59,73],[-38,92],[-33,115],[-90,169],[-25,27],[-155,261],[-41,142],[-61,151],[-45,190],[-121,268],[-15,90],[-29,76],[-48,80],[-106,228],[-78,125],[-72,23],[-4,122],[-88,240],[-51,160],[-108,225],[19,80],[-49,97],[-47,49],[37,79],[-52,171],[3,80],[-23,175],[-53,62],[45,52],[10,53],[-14,90],[-30,55],[-64,33],[-10,113],[28,84],[-11,82],[-44,163],[-51,21],[-9,68],[24,130],[-16,97],[26,50],[22,114],[-11,175],[8,54],[-40,112],[-14,120],[1,301],[45,260],[-2,80],[51,140],[-4,72],[-92,257],[0,114],[-30,95],[-48,65],[-31,107],[11,85],[-43,114],[-33,162],[-39,127],[-97,153],[-119,144],[-238,262],[-134,187],[-21,83],[11,40],[-56,170],[22,36],[13,106],[-34,123],[16,67],[-26,121],[-65,141],[-48,137],[-84,152],[-76,113],[-138,152],[-16,59],[-49,76],[-19,67],[-110,139],[-52,80],[-33,83],[-104,57],[-97,75],[-26,60],[-96,145],[-32,20],[-17,59],[-71,415],[-51,213],[-37,112],[52,245],[64,109],[22,95],[-26,164],[-54,189],[-63,261],[-43,118],[-168,419],[-185,396],[-198,399],[-67,125],[-43,121],[-78,146],[-118,197],[-69,101],[-148,232],[-14,41],[-143,219],[-198,251],[-143,150],[-157,177],[-75,77],[-135,171],[30,36],[-39,90],[18,46],[-55,147],[-114,202],[-130,145],[47,18],[65,-14],[93,-40],[15,-143],[31,38],[-5,97],[24,126],[9,205],[-17,20],[0,117],[32,58],[33,-141],[19,-150],[8,-190],[-9,-181],[37,-220],[-17,-78],[30,-31],[36,49],[29,-69],[-20,-59],[20,-55],[37,-22],[5,118],[-59,97],[-10,157],[10,99],[20,19],[-5,81],[45,30],[-10,144],[20,136],[-29,31],[4,63],[-41,44],[48,33],[21,-43],[-6,-78],[27,-66],[73,-81],[-11,-47],[55,-31],[10,-140],[28,-28],[6,-96],[44,-54],[-1,-119],[47,-81],[-21,-74],[37,-2],[7,-57],[-50,9],[-7,-43],[41,-66],[-42,-58],[-21,-126],[57,-9],[22,228],[19,11],[30,124],[-37,60],[13,162],[42,2],[24,-63],[-15,-29],[39,-114],[-15,-88],[31,-67],[-2,-180],[-20,-21],[28,-78],[32,-34],[-30,-76],[-14,-127],[63,-71],[11,107],[25,50],[-9,95],[57,1],[47,30],[-14,-224],[7,-111],[56,6],[20,-102],[-17,-71],[43,1],[31,62],[-6,41],[63,81],[60,-31],[40,28],[25,59],[59,-49],[66,13],[-7,72],[53,78],[75,45],[53,103],[9,80],[-16,171],[-29,55],[37,92],[-5,93],[-46,93],[-69,89],[-85,79],[-119,66],[-138,35],[-35,71],[-2,60],[-47,40],[-51,88],[-7,44],[-64,73],[-75,7],[-2,65],[-37,107],[18,90],[-34,32],[-12,100],[8,59],[-33,39],[-69,42],[19,111],[-30,94],[-123,124],[39,85],[-30,145],[17,25],[-37,74],[-29,-61],[34,-53],[-14,-78],[-43,39],[-56,87],[9,135],[34,165],[42,45],[58,160],[33,22],[31,73],[44,31],[-4,-118],[25,-158],[31,-55],[81,-37],[35,30],[11,-127],[20,-89],[39,-72],[99,-68],[47,-82],[75,-66],[45,3],[6,-80],[-12,-64],[12,-74],[92,-41],[-8,-81],[-66,-135],[7,-194],[-85,-96],[12,-122],[-13,-18],[20,-178],[50,-92],[-7,-74],[93,-26],[66,17],[52,80],[170,334],[15,84],[-51,274],[98,-19],[22,-73],[-20,-25],[-31,-105],[38,-98],[-11,-92],[7,-74],[30,-57],[44,7],[23,-36],[-32,-146],[21,-108],[38,-48],[-18,-80],[41,-80],[0,-85],[19,-78],[194,-218],[79,-149],[107,128],[66,49],[24,61],[67,25],[58,55],[-3,67],[53,87],[1,88],[-84,119],[4,63],[-33,62],[-2,107],[33,14],[90,-7],[31,32],[-18,86],[-32,68],[14,97],[-74,125],[-27,79],[-1,83],[54,28],[10,-46],[52,-25],[33,28],[-28,84],[3,97],[40,83],[-3,38],[-74,24],[-75,107],[-60,65],[-13,36],[-130,155],[-1,85],[-70,97],[-113,83],[-59,123],[-42,30],[-34,87],[-9,106],[-68,156],[-34,53],[-10,94],[-87,128],[-2,54],[-33,68],[0,109],[-74,125],[6,42],[-40,36],[2,35],[-27,147],[-88,161],[-78,63],[-73,27],[-103,124],[-78,194],[-11,145],[40,152],[-21,69],[-57,80],[-5,34],[-67,22],[39,182],[-9,113],[-29,72],[-191,294],[-51,64],[-71,129],[-90,91],[-66,103],[-11,48],[-37,37],[-18,221],[19,185],[-10,58],[6,113],[-22,89],[-13,115],[44,10],[50,58],[34,69],[-7,152],[-52,129],[21,26],[-14,109],[26,40],[38,2],[26,52],[30,144],[-15,133],[13,70],[66,80],[52,127],[5,106],[31,69],[54,25],[30,40],[43,139],[15,18],[14,113],[35,34],[6,64],[48,29],[42,63],[128,82],[46,73],[85,72],[25,97],[35,71],[6,206],[-14,34],[24,63],[14,264],[-45,185],[-5,112],[-19,21],[16,154],[104,138],[41,158],[0,109],[-23,51],[15,53],[-21,156],[-38,63],[-20,139],[-40,96],[-15,79],[-76,142],[-77,70],[-80,-23],[-14,67],[38,94],[-45,133],[13,89],[-48,41],[28,101],[78,37],[48,77],[70,183],[11,133],[39,73],[74,95],[62,143],[30,95],[7,100],[27,51],[49,224],[37,82],[24,107],[82,249],[19,20],[2,82],[35,68],[41,43],[12,50],[56,91],[7,45],[206,180],[74,39],[69,1],[57,50],[75,-85],[-28,-26],[-75,-132],[-24,-165],[4,-67],[-61,-267],[-1,-45],[-33,-86],[-54,-249],[11,-107],[71,-103],[6,-57],[42,-53],[-23,-60],[7,-99],[69,39],[56,-7],[-8,-53],[20,-69],[-56,-71],[-34,-71],[-55,-69],[12,-87],[-15,-99],[66,-132],[81,-17],[90,79],[20,79],[87,93],[50,21],[65,-4],[33,-85],[-9,-78],[96,-17],[57,41],[27,72],[-26,35],[28,70],[-8,53],[28,137],[22,30],[0,76],[56,91],[8,89],[72,54],[-38,65],[14,59],[78,21],[-77,123],[58,15],[51,-27],[19,37],[-16,53],[40,72],[44,134],[37,25],[7,94],[55,40],[53,73],[36,15],[7,113],[62,92],[8,207],[194,153],[115,11],[136,119],[43,14],[82,92],[38,20],[58,73],[53,-1],[81,48],[133,-42],[78,27],[134,145],[26,-30],[53,-2],[69,78],[42,13],[42,44],[35,-19],[40,46],[127,-20],[51,13],[90,73],[80,50],[66,-6],[24,85],[60,-17],[49,67],[58,-75],[47,85],[-18,59],[34,67],[60,81],[52,6],[-8,55],[96,106],[58,88],[103,115],[63,3],[59,105],[40,-23],[105,46],[45,55],[55,27],[46,-20],[31,144],[39,37],[72,202],[95,142],[49,12],[126,105],[189,67],[178,74],[65,75],[56,3],[7,241],[23,73],[7,88],[52,-31],[30,-44],[134,-53],[93,29],[43,89],[34,-12],[105,41],[149,23],[129,140],[24,69],[158,38],[55,61],[53,18],[72,83],[91,51],[54,96],[53,-4],[3,48],[33,68],[45,53],[32,79],[50,26],[-6,59],[31,15],[105,9],[-20,-51],[-81,-121],[-20,-86],[-45,-121],[-6,-52],[85,-131],[103,-45],[64,-4],[125,64],[103,134],[101,26],[24,-50],[66,81],[45,12],[71,-60],[41,5],[20,81],[65,71],[63,-23],[23,-65],[-68,-55],[27,-97],[60,-47],[38,9],[66,-31],[59,-54],[26,9],[154,-47],[87,-46],[38,64],[109,-2],[207,50],[114,61],[53,44],[88,47],[27,-3],[13,-85],[45,61],[37,19],[40,-65],[103,28],[76,38],[130,121],[92,68],[32,73],[2,66],[69,17],[63,36],[39,131],[-10,48],[115,23],[97,63],[60,95],[49,19],[167,140],[86,57],[10,-46],[-27,-58],[145,56],[67,-9],[24,38],[87,17],[112,63],[21,-83],[165,55],[164,-19],[58,20],[10,46],[46,66],[90,26],[-13,-107],[31,-25],[73,20],[-78,42],[1,20],[99,15],[45,23],[22,-43],[85,-43],[184,120],[48,18],[124,-1],[49,152],[46,14],[18,54],[71,125],[114,75],[40,49],[48,113],[16,105],[25,63],[143,34],[63,57],[30,62],[13,71],[54,-3],[121,-92],[14,104],[29,19],[81,-5],[98,-58],[152,-50],[55,7],[105,-38],[86,9],[58,-65],[64,18],[48,-18],[17,-48],[78,-69],[114,-60],[117,38],[71,43],[52,50],[19,85],[53,27],[14,-91],[87,38],[6,141],[67,-15],[167,8],[153,60],[172,49],[92,-2],[108,16],[185,47],[163,-3],[312,116],[150,75],[126,50],[326,147],[155,49],[271,149],[196,103],[345,167],[269,200],[190,158],[152,145],[116,137],[207,273],[90,143],[147,249],[179,329],[62,201],[43,88],[26,89],[-8,43],[41,35],[52,117],[9,109],[47,34],[31,94],[47,57],[-19,27],[9,126],[-37,44],[-37,5],[-5,66],[21,32],[69,9],[38,-38],[62,40],[60,-1],[50,20],[24,65],[43,15],[67,59],[-17,103],[-37,72],[-102,75],[84,56],[50,129],[41,-17],[-23,102],[76,108],[39,9],[37,-61],[43,-24],[90,31],[127,100],[55,72],[44,7],[42,37],[70,101],[43,95],[53,-3],[35,35],[94,42],[84,107],[27,82],[72,47],[6,60],[65,14],[40,39],[70,22],[82,42],[106,113],[31,75],[15,100],[-4,138],[-17,96],[-46,53],[-128,8],[-134,62],[-30,-58],[-59,-52],[-15,-55],[-58,83],[54,91],[11,48],[11,247],[-33,241],[2,269],[-38,52],[-22,182],[-21,58],[-32,27],[-21,59],[6,71],[-12,146],[18,24],[0,381],[36,79],[21,200],[38,73],[34,-18],[59,179],[37,55],[92,68],[-67,54],[11,47],[67,104],[51,55],[99,52],[62,107],[-15,22],[149,123],[59,20],[66,-71],[25,121],[-19,89],[104,-78],[23,-45],[55,-36],[97,16],[-51,78],[-2,79],[-48,70],[4,44],[-36,44],[2,61],[61,3],[21,23],[-44,52],[59,77],[9,50],[71,-6],[34,-98],[34,-9],[68,20],[69,52],[51,-27],[57,35],[49,86],[78,-53],[25,13],[75,-81],[-21,99],[-34,10],[-41,50],[-37,-6],[-31,77],[-47,31],[-5,51],[68,153],[26,164],[27,35],[130,55],[62,120],[68,29],[22,44],[-19,67],[4,70],[47,89],[16,66],[51,-38],[68,20],[28,39],[91,54],[20,-59],[-30,-75],[45,-82],[48,-23],[-29,-52],[-57,1],[-25,24],[-66,-39],[29,-38],[-9,-51],[-39,-62],[59,-37],[-75,-104],[-28,-82],[65,-16],[24,-78],[52,22],[56,-28],[-15,-76],[21,-28],[-6,-61],[30,-46],[75,5],[30,-58],[53,-17],[54,38],[20,-21],[-29,-88],[-36,17],[-38,-41],[18,-118],[59,-20],[57,-51],[8,-166],[-26,-78],[-6,-98],[50,-15],[165,-139],[14,-49],[91,-148],[30,-219],[27,-24],[106,-143],[42,-134],[63,-129],[15,-79],[-2,-124],[37,-29],[43,1],[43,-60],[40,-16],[64,-145],[72,-61],[76,-157],[-1,-80],[56,-36],[24,-59],[-13,-85],[24,-70],[27,16],[-4,134],[21,45],[-47,84],[8,41],[-10,156],[-30,25],[18,85],[-3,57],[51,29],[20,55],[1,95],[31,124],[7,135],[16,82],[52,36],[-39,72],[-49,55],[-56,150],[-10,180],[42,69],[106,38],[36,-31],[4,-95],[84,-51],[23,42],[91,-78],[50,-59],[34,-122],[79,-125],[56,-28],[52,-49],[28,-67],[64,-16],[-7,107],[-138,158],[-1,72],[-28,171],[-46,109],[-6,44],[73,138],[111,115],[49,41],[27,60],[47,36],[74,25],[-15,66],[-92,-53],[-128,-89],[-59,-10],[-29,-33],[-56,-17],[-64,63],[-32,70],[0,93],[-27,21],[-73,140],[-15,97],[-59,-9],[-106,122],[-23,60],[-118,82],[-23,-16],[-60,30],[-73,-6],[-17,74],[43,24],[72,12],[-19,52],[26,80],[33,-24],[86,124],[-61,45],[-27,-34],[-119,7],[29,-74],[-57,14],[-29,-78],[-26,39],[-14,104],[-48,13],[-28,36],[15,39],[57,1],[32,38],[-3,53],[168,-90],[181,-42],[-19,40],[-125,59],[92,17],[87,-13],[8,34],[-127,92],[-236,93],[81,71],[38,9],[90,-24],[10,-47],[48,-27],[20,21],[104,-36],[53,41],[-13,50],[-52,18],[-69,68],[31,29],[73,-25],[87,11],[-48,104],[-92,72],[-86,6],[-70,-19],[-78,61],[-37,48],[52,18],[67,67],[-53,96],[40,32],[-65,35],[19,80],[97,41],[98,-18],[41,49],[52,-13],[55,-39],[55,46],[85,-56],[49,-90],[12,-55],[-14,-42],[24,-54],[-55,-5],[-66,-61],[81,-37],[71,-92],[45,-31],[33,29],[35,-16],[5,-56],[47,-42],[-24,-41],[-44,-17],[-12,-107],[26,-63],[37,9],[62,52],[-16,25],[10,104],[26,91],[170,-132],[29,14],[-15,81],[-49,50],[-66,103],[95,73],[-53,34],[-34,94],[131,-85],[76,3],[55,-48],[109,4],[89,-25],[128,-97],[-3,-48],[48,-44],[31,-156],[28,-56],[36,-21],[57,30],[31,-17],[134,-10],[19,-66],[-19,-67],[65,11],[57,48],[83,-109],[-16,-57],[36,-45],[-22,-44],[49,-15],[9,101],[92,9],[-80,47],[-39,-16],[-44,57],[-1,126],[-29,30],[-119,-28],[21,107],[95,132],[37,-20],[2,-56],[118,-117],[96,9],[169,-3],[46,-17],[82,3],[32,20],[193,12],[117,33],[105,-56],[50,-53],[61,-19],[51,16],[70,-2],[-26,55],[-71,-17],[-37,18],[-50,-19],[-62,91],[-154,41],[-24,50],[-51,33],[-52,-16],[-129,43],[-123,21],[-157,-44],[-65,-39],[-40,46],[-27,-40],[-56,-14],[-56,24],[-26,61],[20,92],[-27,58],[34,94],[-61,71],[42,78],[-27,51],[90,25],[27,40],[31,130],[-18,137],[80,0],[13,-56],[-16,-48],[87,-137],[48,-23],[86,130],[43,-19],[20,38],[-9,141],[4,168],[-15,39],[40,67],[-1,102],[60,78],[-39,60],[59,49],[65,82],[49,-25],[39,61],[50,17],[-22,58],[30,18],[-39,96],[-29,-18],[-50,28],[-82,-41],[-79,-83],[-51,-117],[-19,-16],[-52,-129],[-50,-161],[-54,-94],[-45,23],[12,105],[-42,64],[-5,187],[-79,33],[-15,-54],[-73,20],[-5,83],[8,93],[-26,80],[5,63],[-23,89],[24,134],[24,56],[82,-3],[-32,209],[-46,21],[40,53],[-2,41],[41,98],[44,2],[0,57],[-29,44],[61,51],[99,29],[37,-54],[43,-9],[10,-39],[118,-9],[52,9],[-6,52],[30,142],[63,-121],[53,-7],[12,31],[-32,52],[-7,74],[36,35],[-23,36],[22,41],[91,45],[16,50],[-78,17],[-76,-15],[-10,69],[79,12],[37,37],[-60,68],[-25,93],[67,-32],[5,65],[150,-112],[13,-53],[66,45],[89,-89],[56,-76],[132,-31],[66,-69],[44,-8],[7,-56],[28,-36],[57,-28],[31,-68],[-46,-64],[32,-35],[48,31],[22,-38],[46,20],[43,46],[97,-2],[-78,83],[34,94],[18,149],[-5,58],[37,99],[-71,-39],[-58,42],[-61,6],[-63,-36],[-49,-49],[-30,-5],[-119,-81],[-55,50],[-53,105],[27,78],[80,79],[1,33],[47,57],[63,35],[74,-76],[27,44],[47,22],[30,57],[54,59],[-35,56],[-76,-51],[-50,-66],[-76,0],[-91,-83],[-41,-20],[-6,-46],[-60,-39],[-40,72],[4,97],[45,97],[-76,-35],[-45,10],[12,68],[64,84],[63,48],[92,2],[21,-34],[43,4],[55,-30],[16,51],[79,51],[36,-28],[36,95],[-44,35],[-20,80],[-4,111],[53,57],[25,-24],[57,51],[18,-90],[-56,-70],[44,-60],[-7,-54],[52,-7],[25,77],[50,-2],[-8,-148],[39,-32],[16,-97],[45,-50],[35,68],[25,-10],[60,42],[32,44],[86,1],[76,-120],[59,-35],[79,27],[40,-25],[47,33],[72,-44],[77,27],[94,-19],[-1,56],[-66,19],[-140,-5],[-58,67],[65,63],[0,49],[-58,6],[-2,55],[25,61],[-36,109],[-19,-27],[-65,12],[-45,-13],[-87,34],[2,61],[-66,86],[-35,7],[-13,-53],[-60,-24],[-12,65],[37,18],[19,68],[56,37],[44,-72],[86,21],[-5,130],[-68,59],[-45,21],[-19,-27],[-72,18],[-57,64],[-24,159],[-93,29],[-21,70],[37,53],[59,-12],[3,94],[85,6],[-17,41],[8,69],[36,19],[71,-45],[11,63],[115,22],[-47,64],[-25,-31],[-76,59],[42,92],[70,44],[44,4],[80,69],[36,-10],[49,-56],[58,13],[21,37],[32,-134],[78,0],[-6,69],[50,46],[-20,41],[76,98],[126,20],[24,-63],[-34,-24],[25,-56],[47,21],[27,74],[26,-30],[30,62],[-30,155],[16,93],[46,61],[-42,111],[-37,58],[30,41],[-46,86],[44,118],[-37,51],[15,38],[41,-6],[32,46],[78,-49],[37,-75],[40,-38],[101,-69],[-53,-113],[-77,52],[8,-89],[-32,-121],[-5,-127],[42,-27],[29,-130],[-25,-161],[-67,-219],[45,29],[30,130],[48,135],[33,121],[65,-11],[66,41],[66,17],[10,66],[34,-6],[-25,-78],[20,-20],[101,67],[-13,-62],[-57,-26],[-13,-37],[44,-78],[-11,-77],[37,-21],[-37,-58],[38,-46],[25,-70],[48,22],[15,-53],[45,-24],[20,-69],[47,27],[16,87],[-36,100],[-44,44],[44,92],[124,50],[4,-68],[72,-27],[13,77],[24,28],[65,-54],[8,197],[-37,6],[-17,44],[1,75],[-20,44],[-72,-11],[-19,66],[59,-6],[104,125],[58,-10],[24,31],[-22,54],[44,13],[-13,81],[-42,71],[-20,74],[50,55],[52,-7],[71,21],[51,76],[21,89],[-37,57],[37,24],[-14,81],[-45,22],[-17,64],[-62,67],[-33,-34],[-58,38],[-73,-66],[-101,82],[-3,55],[-27,54],[-1,78],[83,-57],[-20,-88],[70,71],[52,13],[-44,83],[7,48],[60,-14],[22,-127],[36,23],[19,72],[-83,169],[8,50],[51,18],[115,-63],[3,69],[66,-17],[-50,-108],[44,-26],[-20,-125],[84,-9],[32,20],[65,-68],[-18,-44],[-71,-10],[-54,-65],[56,-2],[77,-132],[-69,-54],[17,-51],[-25,-51],[21,-41],[87,1],[32,-41],[-34,-44],[9,-60],[52,-42],[40,3],[22,46],[43,-28],[15,64],[117,76],[-80,94],[-50,38],[31,69],[2,65],[75,4],[-8,153],[107,-5],[28,98],[62,10],[13,44],[39,2],[38,-30],[68,34],[44,89],[26,10],[41,66],[26,-64],[-86,-145],[-30,9],[-28,-124],[-72,-88],[4,-69],[36,-19],[54,20],[17,-95],[69,-78],[26,26],[78,23],[13,-45],[-28,-39],[17,-87],[-14,-63],[26,-36],[74,-13],[-5,76],[17,29],[86,40],[17,82],[-12,63],[32,76],[-38,107],[16,13],[95,-106],[-3,-75],[39,6],[38,46],[-16,65],[43,12],[14,70],[45,76],[-39,85],[-31,-41],[-63,16],[-18,66],[39,80],[32,-71],[54,4],[8,54],[120,18],[32,-53],[63,55],[50,0],[56,-31],[12,-42],[54,32],[-79,95],[-83,80],[-85,-1],[11,34],[-29,100],[-61,70],[-35,105],[5,54],[-43,50],[142,44],[76,-28],[-12,-68],[73,38],[-6,120],[68,24],[108,-79],[15,102],[63,-1],[66,-75],[4,-51],[80,-62],[-10,-64],[61,33],[31,-30],[-24,-65],[33,-10],[36,39],[26,-57],[-29,-127],[83,36],[10,-179],[17,-55],[78,-54],[6,70],[27,74],[67,-21],[10,-37],[85,23],[29,110],[66,17],[46,-50],[16,-45],[62,-82],[50,-10],[33,45],[-54,59],[-4,36],[56,32],[93,-91],[26,-9],[43,-67],[64,-32],[63,-69],[4,-32],[-44,-59],[26,-31],[-25,-58],[100,-33],[118,-69],[-5,-35],[52,-16],[100,-126],[39,10],[82,-111],[57,-37],[-3,-67],[41,-17],[10,-77],[53,-35],[94,-125],[33,-20],[41,-89],[21,-167],[38,14],[22,-50],[40,-9],[-22,-114],[33,-35],[19,-55],[33,-50],[63,48],[19,-60],[33,-38],[69,1],[35,-59],[-30,-105],[41,-31],[36,-71],[91,62],[39,-2],[44,-40],[88,-112],[-6,-80],[49,2],[108,-54],[41,-60],[22,-63],[68,-30],[32,24],[41,-13],[5,-133],[-38,52],[-41,-20],[-21,-139],[41,-143],[-84,-11],[-96,-63],[50,-28],[-38,-95],[-39,-137],[16,-55],[-2,-85],[-34,-59],[-12,-93],[20,-66],[-56,-70],[-12,-58],[19,-62],[5,-84],[34,-34],[-17,-70],[-2,-80],[-19,-140],[23,-54],[-65,-99],[4,-75],[46,-89],[7,-73],[-29,-132],[-52,-121],[-47,-38],[41,-38],[81,66],[78,187],[15,122],[8,254],[-36,106],[-6,146],[39,75],[42,-49],[48,-25],[66,-69],[52,-90],[105,-126],[4,-43],[63,-90],[-9,-46],[11,-107],[35,-118],[21,76],[-24,27],[-7,121],[20,127],[-55,125],[-95,94],[-47,133],[9,116],[-7,105],[-66,103],[23,116],[65,176],[83,53],[64,26],[17,118],[62,13],[14,-129],[36,-100],[50,-181],[19,23],[-26,120],[-1,73],[-19,69],[8,84],[3,180],[30,-13],[47,-96],[77,-87],[17,-70],[56,-87],[17,19],[-44,65],[-55,183],[26,81],[37,-80],[81,-130],[-10,93],[18,44],[-94,181],[-54,56],[-91,52],[33,36],[59,21],[49,-40],[165,89],[107,33],[68,-66],[66,-36],[29,47],[193,-33],[68,-56],[43,-64],[39,9],[110,-27],[85,-43],[64,-8],[123,16],[143,-66],[83,-4]],[[1769,56881],[-40,63],[46,16],[-6,-79]],[[224,55000],[-17,-58],[8,-67],[73,-229],[94,-411],[51,-62],[6,-64],[37,-86],[-13,-89],[28,-38],[86,-22],[-43,-43],[-30,-63],[25,-167],[75,-7],[66,-65],[20,-69],[49,-87],[36,-117],[-32,-101],[-35,-35],[-72,49],[-60,206],[-108,177],[-122,149],[-76,154],[-20,102],[-121,202],[15,135],[-26,92],[-27,43],[-52,176],[-18,25],[-21,153],[19,73],[-2,108],[107,146],[36,-51],[88,-12],[-24,-47]],[[5897,69295],[74,109],[19,58],[37,18],[115,206],[35,42],[77,-43],[-15,-77],[39,-86],[-14,-130],[-33,-52],[-25,-108],[-57,-28],[-19,-88],[-50,-55],[-55,-16],[-42,72],[-59,-3],[-8,-59],[-53,56],[0,65],[34,119]],[[28452,85760],[-44,-3],[5,-52],[-44,-3],[20,79],[-11,69],[20,83],[45,25],[-18,70],[29,45],[82,36],[47,57],[28,-48],[0,-65],[-23,-54],[19,-43],[50,4],[4,-56],[44,-19],[48,-95],[-8,-44],[78,-31],[-113,-65],[-90,-64],[-90,-17],[-31,35],[80,128],[-19,64],[-108,-36]],[[28143,85949],[-48,-7],[-38,46],[17,43],[70,29],[53,-11],[62,99],[49,-3],[28,-32],[-17,-60],[33,-46],[-56,-50],[-43,10],[-31,53],[-79,-71]],[[28654,84041],[-24,5],[-66,-55],[-43,9],[36,86],[113,62],[7,-43],[-23,-64]],[[27388,83563],[4,83],[70,-47],[-13,-57],[-61,21]],[[30001,88001],[-33,47],[-49,-6],[-13,144],[14,58],[-14,44],[110,8],[-51,133],[11,56],[42,44],[47,7],[-17,51],[61,4],[33,-78],[58,-59],[-9,-60],[-40,-133],[18,-86],[-63,-126],[-21,35],[-84,-83]],[[31434,88516],[1,71],[33,138],[42,-10],[-20,-58],[24,-49],[0,-61],[-34,-30],[-46,-1]],[[30974,88664],[60,-151],[0,-41],[-66,6],[-11,68],[-30,39],[47,79]],[[30283,88075],[45,-62],[-33,-23],[-31,34],[-45,-65],[-46,25],[68,89],[42,2]],[[33454,90275],[-65,-29],[-28,62],[19,52],[96,-6],[112,-82],[-134,3]],[[76464,10824],[-51,-69],[-95,-23],[-47,-53],[-30,19],[-73,-56],[-69,-19],[-45,40],[-15,71],[-43,106],[77,26],[-11,92],[9,115],[-24,56],[-84,80],[-24,118],[62,138],[17,77],[-5,94],[-36,115],[10,76],[-14,81],[108,43],[84,105],[18,72],[-23,80],[4,60],[77,19],[230,-120],[57,-70],[83,-63],[-20,-204],[9,-124],[18,-68],[40,-67],[-54,-142],[13,-137],[60,-33],[-8,-164],[-40,-120],[-38,-33],[6,-50],[-83,-20],[-50,-48]],[[86224,9765],[-81,-14],[-9,93],[115,88],[65,7],[50,51],[118,14],[164,-47],[79,76],[81,-26],[59,54],[45,-7],[67,58],[43,-4],[51,-98],[117,-114],[61,-14],[23,-83],[61,-113],[-65,18],[-146,-130],[-44,3],[-59,-40],[-23,78],[-49,101],[-75,14],[-89,-81],[-56,-34],[-51,74],[-154,-35],[-69,20],[-81,-25],[-89,19],[-1,41],[-53,17],[-5,39]],[[85933,11075],[-6,111],[-47,102],[-54,52],[-59,-11],[-78,-46],[-22,42],[-87,38],[-29,48],[57,32],[99,91],[32,-12],[64,44],[-22,49],[68,62],[-44,76],[66,0],[100,52],[53,69],[41,-18],[13,-107],[109,-51],[94,-127],[126,-139],[116,-154],[109,-90],[44,4],[148,-65],[49,10],[-18,-158],[18,-155],[-34,-60],[-84,-42],[-36,-54],[75,-16],[96,40],[62,-217],[38,-81],[-125,-67],[-63,66],[-116,-3],[-52,-48],[-11,-72],[-65,-39],[-93,-31],[-82,30],[-75,48],[-79,84],[43,36],[-57,107],[-4,109],[-23,93],[-46,44],[-81,34],[-42,128],[-53,26],[-62,-12],[-22,70],[51,78]],[[85516,1641],[-117,-30],[-41,46],[-104,45],[1,101],[-23,94],[23,30],[135,34],[2,38],[-44,108],[33,14],[115,-46],[10,-65],[-55,-108],[103,-112],[59,-33],[165,-19],[-11,59],[67,17],[19,33],[-78,63],[15,65],[-37,52],[48,20],[-5,48],[-74,49],[-4,97],[91,15],[76,-14],[-26,96],[44,62],[77,-31],[45,-75],[41,18],[100,-130],[-29,-68],[31,-83],[-115,-114],[-62,-38],[5,-48],[58,-32],[2,-68],[71,-221],[2,-63],[-46,-81],[5,-43],[52,-80],[-95,25],[-9,62],[-124,20],[-4,121],[-54,53],[-63,-72],[40,-30],[-22,-51],[-120,-90],[-9,-82],[-48,21],[-8,51],[-165,73],[-40,71],[-12,88],[34,48],[66,-9],[22,48],[-13,51]],[[84289,824],[-30,66],[47,38],[3,56],[70,41],[0,54],[66,14],[22,-63],[66,28],[52,70],[3,87],[-26,37],[100,73],[-21,61],[-121,21],[-28,-23],[-80,18],[10,85],[53,22],[48,-17],[39,61],[-85,10],[39,100],[74,66],[12,-64],[95,-129],[-16,-114],[48,-50],[-7,-59],[54,-71],[-37,-52],[-62,-13],[-99,-68],[-58,-76],[-20,-54],[5,-114],[62,-62],[48,56],[31,-34],[-2,-88],[-75,-45],[-14,-81],[-39,-54],[-16,-77],[17,-67],[-64,-41],[-53,19],[-91,112],[32,35],[-34,92],[-36,40],[-60,-17],[0,-92],[-54,-126],[-112,15],[1,81],[-108,117],[63,19],[88,-138],[68,8],[-16,56],[2,130],[12,68],[134,33]],[[78477,8832],[16,49],[-5,93],[94,88],[21,68],[57,-79],[73,-1],[103,-90],[73,-23],[48,-69],[-46,-17],[-42,36],[-71,-19],[-55,13],[-95,-73],[-75,-19],[-61,8],[-35,35]],[[84346,1598],[-21,-101],[-25,-43],[1,-69],[33,-38],[19,-81],[-50,-150],[-61,-48],[-81,14],[-36,-20],[-62,54],[3,47],[-51,22],[-55,-10],[-22,79],[59,30],[-55,87],[-94,-118],[-64,31],[-46,60],[-52,3],[69,230],[9,109],[-96,-164],[-26,-215],[63,-16],[24,-38],[116,-84],[57,-70],[51,-28],[-47,-46],[-24,-87],[-66,36],[-94,-36],[120,-101],[-5,-49],[-46,-44],[-47,-100],[34,-45],[-124,11],[-33,-51],[84,-41],[-131,-46],[-18,-40],[45,-123],[-87,-11],[-41,36],[-37,-94],[11,-89],[54,31],[19,-79],[-143,-100],[-65,-3],[-7,44],[-76,49],[-140,-23],[-51,-53],[-67,10],[-30,84],[-81,1],[-40,57],[-150,162],[6,123],[-72,24],[9,-111],[-48,-56],[-64,17],[-45,-49],[-71,-4],[-173,37],[-105,48],[-48,-20],[-23,-47],[-65,-24],[-59,55],[15,83],[-56,28],[-101,-1],[9,-110],[-71,-16],[-18,64],[-48,27],[-26,-51],[-93,-26],[-3,-49],[-77,-1],[-9,-34],[-87,11],[15,129],[-37,60],[10,63],[-80,110],[-15,79],[-117,102],[62,8],[41,122],[38,-47],[114,-7],[50,-19],[79,23],[71,-30],[7,-79],[82,9],[-16,46],[112,0],[47,-37],[-3,143],[-65,34],[-137,-13],[-13,-72],[-55,-10],[-92,47],[-29,83],[-85,-110],[-110,58],[-9,55],[-52,32],[33,75],[3,104],[-71,17],[-45,76],[-35,-17],[36,-84],[-56,-35],[-17,-41],[-65,14],[-20,-44],[40,-50],[67,74],[40,-7],[-8,-83],[-59,-22],[-73,-58],[-97,122],[-48,105],[-16,87],[-47,92],[-57,-11],[-45,144],[-34,12],[10,76],[-73,-15],[-91,74],[52,122],[-70,32],[-42,58],[-74,50],[-46,103],[-73,12],[-72,-37],[-78,13],[-14,121],[-53,98],[-35,4],[-71,167],[-27,148],[-38,75],[-58,59],[31,95],[-32,17],[-33,94],[2,97],[-84,14],[8,62],[-135,54],[48,49],[3,85],[-51,54],[-52,91],[3,58],[-61,99],[41,59],[-40,104],[2,69],[-35,120],[-66,86],[1,46],[40,46],[-20,134],[-27,73],[-45,65],[55,29],[41,-42],[44,-95],[13,-63],[41,-10],[-5,-63],[66,18],[66,-43],[10,-75],[99,-66],[116,-99],[81,-22],[52,-71],[-12,-99],[111,48],[51,-37],[80,132],[-1,45],[-68,111],[-42,27],[-55,-53],[-36,75],[-75,28],[-16,63],[-56,39],[-91,102],[7,119],[-23,93],[-30,25],[-132,-31],[-63,-70],[49,-31],[4,-44],[-53,-16],[-109,53],[72,88],[29,174],[-20,164],[-64,181],[-106,223],[-162,134],[-35,60],[-91,80],[-6,45],[-150,160],[-7,52],[-85,121],[-53,31],[-32,-24],[-43,46],[-15,68],[37,29],[-45,64],[-7,76],[-39,124],[-134,239],[-50,64],[-72,137],[-91,69],[57,34],[26,44],[-18,110],[-80,94],[-18,69],[-34,15],[-29,126],[-62,77],[27,89],[-9,55],[-44,86],[-7,69],[14,142],[-39,111],[-51,36],[-56,98],[35,26],[4,128],[-46,68],[88,50],[21,47],[68,-4],[68,158],[-3,59],[-36,69],[21,47],[3,130],[-51,18],[-19,89],[46,89],[-31,29],[19,47],[87,22],[34,-45],[0,-79],[238,-74],[22,-53],[83,-33],[136,-18],[82,16],[62,-15],[54,-99],[87,3],[38,-59],[155,-40],[72,14],[26,33],[136,16],[78,-20],[21,51],[6,90],[-44,113],[109,-54],[-18,-82],[-38,-71],[-10,-64],[174,-118],[105,0],[112,-54],[105,-9],[71,34],[51,-45],[7,-44],[92,-84],[46,8],[42,-33],[136,-47],[75,4],[123,-28],[-20,-64],[45,-64],[63,-21],[41,-57],[82,-54],[80,-21],[64,6],[80,-31],[7,-36],[106,-9],[107,-42],[25,-28],[167,-88],[103,-16],[26,-46],[91,-45],[82,-4],[80,-22],[55,23],[48,-20],[199,-10],[22,-48],[147,46],[93,6],[201,102],[-7,-86],[36,-21],[38,-80],[-23,-27],[33,-69],[44,8],[-26,86],[-11,124],[71,24],[64,48],[55,95],[44,-25],[111,94],[76,-43],[62,7],[87,-109],[1,-61],[32,-36],[-5,-59],[55,-19],[82,79],[112,-61],[-56,-116],[81,-72],[44,-88],[65,-37],[-23,-71],[13,-46],[76,-30],[60,-72],[41,-1],[-5,75],[-109,14],[-51,53],[90,68],[-63,81],[-108,63],[-5,63],[-47,62],[53,35],[-154,136],[-100,-22],[-62,45],[-6,91],[-24,92],[52,57],[136,76],[82,-32],[87,18],[98,94],[79,37],[73,-15],[50,-41],[107,15],[85,-56],[63,12],[106,53],[74,107],[75,45],[59,-48],[102,54],[34,-99],[64,-28],[26,-71],[111,6],[121,72],[84,86],[117,165],[75,150],[58,7],[85,60],[66,-43],[53,-68],[84,14],[97,-69],[128,-22],[120,51],[86,115],[69,124],[29,105],[33,46],[146,-28],[21,-68],[103,0],[45,-45],[41,-82],[-8,-47],[142,-25],[32,23],[75,-45],[11,-58],[39,-61],[58,-18],[35,-89],[68,-64],[11,-71],[82,-89],[-102,-121],[-54,0],[42,-86],[-12,-70],[-40,-90],[-4,-91],[35,-68],[-38,-46],[8,-68],[66,-137],[73,5],[10,-68],[-102,-102],[9,66],[-37,6],[-52,-131],[35,-45],[133,99],[-33,-119],[-45,-78],[-14,-83],[-53,-165],[-4,-108],[20,-44],[27,-150],[72,-60],[12,-150],[-66,-111],[4,-105],[-26,-78],[12,-102],[-60,-151],[7,-105],[49,-90],[57,-22],[-17,-54],[48,-80],[-42,-42],[9,-91],[-40,-31],[-24,-98],[-1,-93],[64,-69],[45,-131],[39,-71],[-59,-40],[-7,-100],[72,-38],[23,-34],[-23,-93],[-56,-48],[-22,-109],[-40,-22],[-28,74],[-62,13],[8,78],[67,112],[-76,93],[89,63],[-7,48],[-65,36],[-43,-6],[-22,70],[-81,43],[-124,5],[35,98],[103,24],[76,116],[-39,39],[-79,-110],[-58,36],[-72,-24],[51,-107],[-35,-68],[195,-51],[2,-25],[-161,25],[-92,-2],[-96,-26],[-41,-44],[16,-143],[-31,-91],[-130,-145],[34,-58],[-64,-152],[58,-101],[-38,-92],[-50,-50],[-19,-55],[72,-104],[-34,-106],[1,-77],[-94,-92],[-9,-57],[-164,17],[-17,-65],[64,-8],[25,-64],[45,-40],[-7,-92],[54,-33],[20,-75],[-60,-99],[19,-74],[-28,-31],[-86,-22],[-64,-114],[-12,-89],[-38,-82],[-95,-154],[-130,-41],[-98,46],[-103,-42],[-104,82],[-68,23],[27,71],[-32,28],[-65,106],[-77,40],[-94,7],[-64,-59],[-77,59],[-18,-50],[184,-87],[134,10],[-15,-38],[-135,-53],[-52,-161],[88,-71],[15,-32],[-68,-71],[48,-127],[-32,-39],[-221,-69],[-50,19],[23,58],[-43,35],[22,77],[63,-146],[51,-13],[51,28],[-10,72],[25,44],[-70,69],[19,154],[-52,11],[-40,-98],[-32,16],[23,83],[-35,74],[-124,23],[-6,69],[-29,20],[-43,86],[-89,44],[20,43],[-54,22],[-42,-75],[50,-55],[49,20],[69,-41],[-5,-71],[42,-31],[11,-50],[-23,-55],[57,-25],[16,-53],[-19,-79],[-74,-97],[1,-60],[49,-135],[-74,-35],[-59,105],[-26,-6],[-54,-130],[105,-45],[-48,-70],[-57,3]],[[39501,87294],[74,-21],[30,-47],[54,33],[64,-47],[51,-85],[-6,-80],[50,36],[54,-55],[88,-59],[-19,-108],[-27,-42],[-1,-47],[47,-146],[30,-66],[-66,-84],[3,-52],[-45,-60],[35,-30],[56,121],[54,9],[55,73],[-7,62],[29,39],[-26,84],[37,36],[36,70],[-73,59],[11,101],[-21,90],[6,111],[-15,135],[-17,43],[39,49],[62,-33],[-14,-45],[115,25],[122,-60],[33,-81],[102,-47],[81,-16],[82,-38],[116,-210],[6,-68],[32,-18],[82,-92],[80,-133],[-13,-75],[-94,-68],[126,5],[36,47],[75,-4],[35,-28],[36,53],[-81,97],[-27,61],[-1,114],[-49,131],[7,129],[-38,25],[-45,-44],[-16,61],[-91,188],[-25,34],[-15,76],[-74,124],[14,44],[68,-55],[103,-150],[40,-106],[64,29],[-2,36],[-72,84],[-34,107],[14,26],[104,-95],[25,-44],[64,23],[64,-37],[145,-6],[41,18],[99,-41],[106,45],[7,43],[76,66],[63,104],[-47,7],[-68,-46],[-86,-98],[-90,-27],[-65,8],[-10,65],[47,16],[47,63],[-142,-51],[-60,46],[-74,36],[-34,34],[-3,90],[-49,33],[-67,111],[-49,13],[-41,101],[10,83],[115,8],[149,-5],[61,87],[59,15],[76,88],[-17,21],[-158,-62],[-78,-51],[-145,38],[-107,16],[-26,33],[-85,15],[-18,51],[-63,85],[-37,24],[-55,-29],[-2,66],[-41,15],[-38,55],[-28,80],[-55,38],[-70,4],[12,110],[32,84],[-17,46],[66,69],[51,104],[-13,142],[32,10],[124,172],[51,136],[22,88],[-11,126],[40,-30],[48,41],[21,-100],[-29,-73],[-1,-62],[65,-23],[-5,72],[11,69],[30,43],[58,-30],[42,115],[-50,60],[11,23],[80,-60],[66,9],[156,85],[67,121],[3,169],[-30,66],[-49,13],[18,138],[43,64],[55,47],[77,100],[-21,45],[15,107],[-18,25],[15,161],[70,187],[33,148],[-13,125],[119,54],[-14,55],[43,93],[33,-33],[1,-124],[68,-83],[81,-24],[82,1],[60,21],[117,96],[97,124],[26,-29],[60,26],[52,65],[69,126],[119,341],[-58,139],[-136,186],[-73,-5],[-35,38],[6,93],[37,88],[-34,48],[23,168],[25,81],[-25,122],[29,100],[44,13],[41,58],[43,-8],[-1,-46],[31,-44],[42,-21],[94,22],[103,77],[29,43],[44,23],[2,40],[35,102],[27,124],[-14,36],[-2,98],[10,86],[-24,60],[14,136],[31,-22],[78,-8],[-1,59],[36,16],[58,59],[62,-8],[80,-87],[41,9],[24,-50],[4,-69],[39,-30],[46,33],[70,-51],[63,-11],[79,32],[103,-13],[-70,75],[-52,17],[-27,43],[-61,5],[-32,-31],[-27,87],[-67,68],[85,23],[18,-22],[44,74],[-51,46],[-29,-21],[-19,92],[57,198],[37,41],[-57,68],[91,66],[-23,42],[-51,13],[9,66],[64,51],[92,-23],[71,-65],[54,6],[50,-42],[66,-3],[33,-32],[-22,-130],[52,-83],[-23,-53],[29,-106],[46,69],[40,-58],[64,6],[2,-33],[62,-104],[35,-14],[84,0],[40,-15],[30,-81],[27,55],[-67,108],[-42,28],[-65,-2],[-34,183],[33,-17],[93,35],[15,-75],[45,-23],[-9,110],[-30,66],[-97,25],[-96,82],[-2,-67],[-60,63],[27,116],[79,170],[58,74],[73,-36],[74,-12],[71,15],[94,-55],[47,7],[-68,109],[32,151],[13,102],[-23,67],[-42,22],[-24,70],[21,78],[103,54],[49,-73],[55,39],[63,-4],[5,-61],[25,-22],[56,6],[23,35],[57,-85],[99,-88],[24,35],[5,59],[52,98],[-8,81],[49,87],[-11,86],[76,111],[5,-81],[50,-60],[-14,-150],[22,-27],[-22,-61],[34,-106],[96,-130],[72,-58],[120,-49],[67,-10],[167,14],[151,-13],[196,-3],[22,11],[157,21],[187,87],[100,87],[50,3],[60,-88],[4,-35],[53,-52],[201,-72],[120,-20],[5,38],[145,96],[60,64],[44,80],[35,1],[96,58],[14,49],[74,4],[5,-85],[34,-65],[137,69],[47,8],[89,-114],[68,43],[-2,63],[68,170],[95,25],[114,66],[85,69],[33,-39],[127,57],[-26,207],[49,223],[27,262],[-32,115],[-42,39],[-67,17],[-28,46],[40,59],[50,22],[16,42],[52,58],[-48,12],[-79,-18],[-134,37],[-44,87],[-43,19],[-5,105],[12,35],[129,-2],[35,-50],[60,-1],[-3,40],[-117,95],[-31,85],[24,12],[23,68],[-75,35],[16,68],[-44,5],[-34,34],[-1,58],[-61,36],[-32,56],[-82,21],[-63,-8],[-115,41],[-125,-74],[-162,30],[-66,-42],[-40,-64],[-55,2],[-56,-40],[-9,-42],[-98,-43],[-67,3],[-31,20],[-24,79],[-36,19],[-27,90],[45,6],[28,72],[-44,45],[-76,-30],[-62,26],[-1,62],[-59,-27],[-53,43],[48,47],[15,117],[-120,-43],[24,61],[-66,73],[-70,50],[-43,2],[-35,-57],[-120,-29],[-51,1],[-27,66],[99,12],[26,97],[38,-41],[62,-8],[15,26],[-68,123],[56,59],[41,-18],[25,104],[58,-32],[5,-61],[67,-85],[82,-5],[54,78],[-62,124],[51,-6],[15,72],[-31,48],[13,32],[54,9],[36,-54],[44,-136],[32,-30],[44,27],[48,-124],[70,-6],[-45,-86],[43,-77],[-37,-55],[54,-116],[12,98],[74,-31],[-24,-108],[19,-6],[7,-94],[25,-70],[31,32],[67,-33],[-14,92],[-44,57],[19,41],[78,-57],[24,20],[11,72],[-23,56],[-87,68],[15,95],[-20,82],[24,50],[-72,116],[-20,76],[-49,23],[5,59],[95,18],[26,-45],[3,-62],[30,-49],[51,-45],[40,-11],[-11,-51],[70,-155],[35,-5],[-1,107],[-41,54],[23,47],[-23,70],[70,29],[35,-23],[68,82],[53,-9],[19,-133],[43,-43],[-7,-190],[-18,-60],[65,-22],[18,99],[38,47],[-18,41],[52,74],[37,-19],[59,-101],[78,-63],[-10,-67],[20,-109],[20,-45],[71,7],[23,-70],[32,-23],[38,-67],[80,-39],[44,-99],[-2,-92],[59,-119],[128,-41],[56,17],[34,58],[75,88],[23,70],[49,16],[47,87],[-9,27],[65,36],[21,-66],[60,-48],[50,32],[-8,49],[22,54],[-46,81],[-62,56],[16,30],[65,-31],[47,26],[42,-99],[93,-169],[60,-15],[31,-32],[30,-89],[61,-120],[76,-62],[-19,-75],[79,-187],[7,-60],[64,-99],[3,-33],[62,-108],[54,-34],[123,-35],[82,10],[88,74],[92,34],[35,-23],[9,-54],[-31,-24],[-60,6],[-22,-44],[9,-60],[25,-35],[121,34],[42,29],[33,53],[30,-80],[-17,-58],[75,11],[58,-85],[47,63],[54,0],[80,64],[-5,-155],[-19,-31],[11,-66],[-39,-59],[33,-24],[29,101],[62,90],[102,-8],[-2,-87],[65,7],[21,35],[61,19],[-2,40],[69,69],[118,1],[84,62],[11,67],[40,46],[68,-13],[37,20],[48,-86],[109,-9],[45,29],[13,-72],[-46,-51],[-11,-60],[-26,-23],[-68,21],[-39,-23],[-59,-84],[49,-119],[39,7],[47,-100],[87,9],[6,-39],[157,70],[63,103],[82,26],[62,-44],[-6,-52],[39,-65],[-13,-77],[58,16],[18,41],[73,38],[5,-51],[95,-126],[-51,-23],[6,-73],[44,-31],[45,-89],[-32,-118],[-38,-86],[30,-88],[34,72],[11,89],[83,102],[58,14],[-5,103],[27,43],[62,17],[55,-82],[98,-89],[118,-40],[59,-40],[115,2],[11,-21],[138,12],[104,38],[86,16],[130,105],[75,149],[140,28],[65,-2],[-14,-133],[37,-15],[44,-129],[110,-36],[-3,-160],[33,-55],[71,-10],[62,-52],[48,27],[101,-45],[40,-52],[46,-119],[101,-104],[23,-40],[174,74],[44,0],[37,-36],[15,-50],[115,-91],[14,22],[-109,192],[97,-26],[130,28],[42,-88],[71,-13],[-7,52],[-57,42],[-35,61],[-55,6],[-35,69],[83,7],[37,48],[43,1],[39,52],[-30,67],[53,36],[60,17],[44,70],[47,-26],[22,31],[58,-4],[-36,-57],[27,-37],[87,0],[41,14],[93,72],[30,74],[45,-9],[17,-70],[61,-38],[112,93],[51,27],[45,67],[78,15],[101,75],[59,0],[76,52],[80,39],[70,-12],[-25,-54],[-94,-101],[-49,-29],[-75,-143],[-71,-38],[-36,-69],[-36,-20],[-84,-105],[0,-103],[61,-120],[80,-63],[48,-102],[42,98],[35,26],[41,-20],[5,111],[78,67],[32,51],[74,9],[36,81],[38,3],[-5,-67],[35,-28],[36,104],[47,-30],[175,133],[-10,77],[33,39],[43,-22],[-40,-112],[-24,-16],[-61,-111],[-119,-167],[6,-42],[62,-43],[23,-72],[88,14],[20,77],[85,31],[41,-26],[-28,-95],[-40,3],[-14,-59],[-51,-14],[36,-60],[-66,-139],[-54,-49],[6,-61],[68,-10],[11,-64],[-27,-55],[21,-48],[64,-58],[38,11],[2,51],[44,72],[38,-79],[29,-5],[118,59],[39,-5],[10,-67],[88,-17],[66,18],[111,87],[88,101],[18,56],[-18,40],[53,74],[21,84],[72,181],[-18,98],[-42,61],[-58,-21],[-56,19],[-127,-28],[-72,92],[-56,-37],[-46,13],[5,101],[62,-10],[35,34],[51,103],[85,134],[-6,18],[93,54],[57,-3],[15,-29],[68,110],[25,-15],[35,57],[2,39],[74,116],[40,-38],[35,44],[45,21],[55,-10],[93,41],[15,61],[128,17],[-72,-78],[-141,-60],[-54,-5],[-11,-74],[-48,-1],[15,-62],[64,-46],[35,0],[39,97],[50,-14],[14,-82],[41,-129],[42,-72],[43,-19],[-6,-100],[-22,-59],[47,-120],[8,-54],[61,-66],[53,-32],[3,-101],[39,-40],[120,-13],[16,39],[54,0],[52,121],[-97,66],[-48,74],[51,12],[9,34],[134,41],[16,-63],[81,-101],[86,2],[44,-28],[26,-77],[38,-5],[-1,-88],[66,-11],[-1,-42],[28,-86],[-27,-57],[46,-84],[-102,-59],[-34,-75],[-49,-36],[-65,-84],[-94,-151],[-78,-93],[-32,23],[38,87],[49,20],[-8,120],[-34,3],[-140,-128],[43,-58],[13,-71],[-16,-58],[-45,0],[-14,-55],[36,-38],[-62,-77],[-29,-62],[-33,-115],[7,-59],[32,-70],[-161,30],[-49,-52],[-16,-88],[45,-30],[10,-56],[-39,-121],[-59,-10],[-10,59],[3,97],[-38,12],[-71,62],[-30,-42],[24,-109],[-39,-46],[-87,118],[-45,-43],[8,-36],[48,-21],[-26,-93],[11,-33],[57,-24],[10,-51],[84,-73],[37,-67],[188,-117],[29,-124],[47,-32],[-32,-38],[-49,8],[-14,122],[-29,19],[-47,-38],[-37,-58],[4,-58],[-41,8],[-4,109],[-31,44],[-61,-63],[-29,25],[-57,-45],[-78,54],[-17,-53],[64,-19],[68,5],[2,-49],[66,-33],[-12,-31],[18,-69],[72,-9],[-51,-104],[-42,-161],[-44,22],[-45,-31],[-33,-60],[-17,-139],[8,-59],[-50,-62],[-21,20],[18,73],[-130,-53],[-35,-76],[-103,-175],[-25,1],[-37,89],[34,21],[12,50],[-25,66],[56,9],[51,-12],[37,57],[-20,82],[-31,25],[8,94],[-33,54],[36,22],[-34,70],[33,33],[-16,42],[18,43],[-16,68],[-70,33],[-68,-82],[-4,-64],[36,-80],[-36,-73],[8,-67],[-67,-7],[-146,101],[-7,-48],[55,-56],[-18,-56],[-52,-64],[-2,-74],[-31,-42],[-57,40],[-63,-39],[-11,81],[-26,23],[39,197],[-25,71],[-54,-62],[-43,-25],[11,-59],[-69,-102],[4,-89],[-49,27],[-30,-51],[31,-61],[-51,-88],[-26,147],[-34,79],[-40,13],[-60,-58],[-15,-106],[-38,2],[-16,44],[-72,-53],[-24,-96],[-38,-32],[-29,-87],[-4,-65],[100,-68],[-4,-61],[18,-40],[105,22],[-20,-107],[-46,33],[-72,-28],[-74,59],[-49,-32],[-12,-35],[15,-67],[-22,-156],[28,-51],[-1,-57],[-65,-32],[-10,-75],[26,-74],[47,-21],[17,-110],[71,-65],[-57,-62],[28,-85],[58,-50],[107,4],[53,36],[25,43],[45,22],[13,64],[54,20],[-4,60],[49,54],[53,-35],[7,-42],[-53,-31],[-4,-49],[-47,-60],[3,-92],[-38,-18],[-33,-118],[21,-120],[-59,-87],[-5,-110],[-47,-54],[-32,-100],[-96,-95],[-22,-54],[15,-39],[-4,-103],[-20,-97],[-34,-60],[-3,-82],[-21,-182],[-113,-90],[-48,-55],[-66,-9],[-99,-139],[-72,-26],[26,-32],[-56,-132],[-97,-179],[12,-47],[-133,-42],[-49,-86],[-24,-96],[1,-52],[-34,-11],[-76,-120],[-29,-69],[-22,-97],[3,-107],[-14,-44],[-61,-66],[-20,23],[-52,-25],[-116,-178],[-32,-5],[-28,51],[-28,-20],[29,-140],[1,-115],[45,-118],[-8,-48],[58,-112],[11,-43],[81,-166],[80,-56],[53,-61],[128,-91],[88,-41],[67,23],[67,-47],[7,-35],[49,-20],[84,-116],[47,8],[151,-121],[143,-89],[90,-100],[63,-101],[102,-71],[37,-44],[152,-84],[69,-74],[162,-92],[67,-70],[94,3],[90,-75],[4,-99],[30,-107],[24,-42],[17,-115],[49,-110],[66,-54],[9,-36],[89,-45],[47,2],[37,-35],[51,3],[56,-62],[84,-60],[88,-119],[83,-78],[114,19],[112,83],[33,77],[93,-37],[37,3],[63,-38],[-21,-92],[-67,-114],[-8,-39],[-87,14],[12,-61],[43,-6],[16,-63],[45,-47],[43,-74],[5,-68],[-57,-60],[36,-104],[57,-3],[98,129],[9,-50],[125,20],[34,-28],[42,6],[38,-49],[88,-12],[26,39],[-7,49],[100,72],[57,71],[29,-78],[36,6],[108,-145],[87,-66],[88,-28],[95,-49],[121,-94],[106,-29],[86,-152],[47,-54],[9,-37],[54,-45],[91,-52],[52,-14],[51,-54],[40,16],[70,-23],[77,-52],[54,-3],[94,-31],[14,18],[123,-48],[194,-114],[121,-30],[48,-99],[48,-63],[52,-122],[59,-98],[39,-41],[79,-155],[58,-68],[133,-120],[29,-56],[106,-107]],[[59022,84693],[-14,30],[-17,131],[59,130],[25,-7],[75,66],[-20,112],[67,-33],[30,-118],[69,-20],[52,-73],[-9,-55],[18,-93],[-16,-68],[32,-97],[36,-15],[-22,-114],[-33,-51],[-71,-43],[-38,20],[10,64],[-18,44],[-48,-20],[-65,77],[-30,141],[-72,51],[0,-59]],[[57717,90410],[-20,65],[33,49],[43,-46],[39,34],[18,-45],[75,-12],[63,33],[16,36],[-7,63],[45,22],[-5,-80],[37,-18],[48,33],[66,9],[-17,58],[92,-7],[2,67],[-45,20],[-6,86],[-54,22],[1,124],[51,4],[73,-62],[89,17],[34,105],[81,18],[19,-89],[-30,-81],[-89,-53],[17,-101],[18,-33],[60,-11],[-22,-52],[41,-72],[-13,-66],[73,26],[29,-27],[105,-46],[76,51],[15,79],[-31,34],[30,162],[65,-23],[43,8],[41,-31],[21,-77],[-5,-55],[-68,-107],[-63,-153],[-3,-53],[-110,20],[-53,-37],[-54,-125],[-16,-137],[38,-68],[67,14],[3,-52],[-104,-21],[-42,-75],[-36,9],[-80,-137],[8,-84],[25,-43],[-21,-36],[44,-67],[75,0],[24,-29],[55,10],[-25,51],[31,73],[37,4],[104,-110],[22,-64],[65,-4],[38,25],[52,118],[65,15],[46,-24],[-25,-89],[-46,-30],[46,-116],[-27,-41],[15,-62],[-31,-65],[-69,36],[-32,-60],[-41,10],[-55,74],[-38,-34],[-25,36],[-114,52],[-103,5],[-144,-81],[-71,-28],[-44,29],[-24,63],[-211,31],[-40,62],[-77,-11],[-89,60],[-45,66],[-102,-18],[-96,-54],[-73,-71],[-6,92],[181,107],[47,45],[4,53],[59,92],[-34,73],[1,45],[-28,62],[10,29],[-16,95],[3,73],[-21,45],[31,79],[37,173],[-6,48],[-40,74]],[[57164,90604],[-4,55],[-37,10],[-53,-32],[-5,-33],[40,-94],[-1,-44],[-95,-4],[-57,66],[36,82],[-26,72],[7,98],[34,-6],[85,-53],[45,25],[-13,43],[12,77],[28,24],[1,74],[85,23],[63,-38],[62,-92],[41,-6],[10,-67],[-32,-33],[-32,12],[21,-168],[-49,22],[-12,-143],[-34,-46],[-88,-30],[-17,27],[32,72],[-47,107]],[[43576,97847],[87,-131],[-2,-60],[51,-70],[16,60],[83,-33],[-1,-32],[71,-56],[22,44],[-67,33],[14,52],[-41,25],[-54,97],[-87,21],[16,104],[145,32],[20,32],[116,7],[74,23],[85,84],[30,52],[34,-3],[167,-81],[32,-53],[103,-37],[44,61],[-25,87],[58,20],[92,64],[56,111],[64,3],[36,-32],[18,-82],[-13,-59],[54,-69],[44,93],[-22,100],[16,98],[36,37],[69,18],[11,80],[117,-34],[42,-86],[-40,-57],[-4,-59],[64,-11],[12,56],[34,20],[72,-40],[0,-80],[58,-20],[18,42],[-18,37],[35,39],[74,-51],[5,-49],[-23,-65],[43,-21],[9,-73],[40,-85],[-16,-40],[45,-47],[52,39],[61,-42],[24,-50],[-7,-67],[15,-65],[-34,-53],[-68,27],[-79,-103],[-31,-139],[25,-59],[-17,-56],[33,-15],[0,-50],[-68,-13],[-62,9],[-24,46],[-57,13],[-33,-52],[-38,-103],[-37,-59],[-23,-71],[-86,-108],[-40,-67],[-39,23],[-52,-25],[-129,-122],[-21,-31],[-90,-43],[-97,-75],[-61,-17],[-85,-141],[-36,1],[-56,-38],[-68,-103],[-50,-35],[-44,7],[-53,104],[-127,128],[-44,32],[-123,16],[-110,63],[-56,46],[-121,41],[-35,100],[-76,46],[-44,70],[-57,18],[-16,41],[-89,94],[-62,-19],[-96,78],[-40,104],[5,80],[37,84],[-15,53],[-67,43],[-15,47],[-55,61],[7,60],[-39,72],[20,87],[-38,57],[9,35],[-72,152],[32,89],[28,34],[-51,96],[-59,51],[21,270],[68,10],[115,-134],[60,-105],[62,-75],[66,-42],[55,6],[17,45],[96,-66],[24,-103],[-44,-61],[-43,5],[-32,-66],[7,-70],[29,-39],[40,-9],[40,45],[37,-5],[56,44],[5,54],[48,-12],[-14,-53],[12,-81]],[[43464,96839],[64,-59],[-55,-166],[-32,-53],[-52,0],[-34,27],[-56,-4],[-90,-33],[-134,50],[-31,-9],[-49,35],[-78,13],[-98,67],[-101,24],[-38,-21],[-116,-36],[-112,-48],[-69,-13],[-102,-41],[-112,-6],[-45,20],[-49,-16],[-56,78],[-14,74],[31,56],[61,-32],[31,114],[-5,128],[14,49],[39,-2],[87,-99],[75,-4],[98,153],[29,4],[103,-137],[0,95],[-29,13],[-21,62],[-96,6],[25,164],[-16,46],[-48,39],[40,59],[20,91],[-33,74],[-72,-20],[-19,44],[52,43],[21,87],[127,83],[55,103],[-12,57],[40,36],[97,5],[82,67],[42,-63],[25,-128],[19,-45],[70,-86],[7,-75],[-63,-109],[-3,-69],[59,-99],[60,-19],[99,-93],[-11,-119],[20,-153],[40,-9],[120,-76],[39,13],[34,-48],[64,-28],[10,-49],[52,-12]],[[48305,98634],[-13,-55],[31,-52],[70,18],[-45,-87],[24,-65],[16,-192],[-48,-41],[-19,-94],[-57,3],[-35,64],[-23,102],[-2,63],[-106,168],[-61,123],[43,11],[35,41],[13,155],[-77,62],[-48,92],[8,25],[93,-81],[95,43],[48,53],[-12,102],[30,59],[70,-5],[-46,-90],[15,-133],[32,-84],[12,-132],[26,-26],[-31,-47],[-38,0]],[[55612,95925],[10,99],[50,70],[22,86],[51,-52],[41,-16],[57,22],[56,105],[42,-19],[51,21],[46,-21],[59,56],[60,35],[122,148],[96,80],[37,127],[-29,3],[-25,56],[29,50],[122,-47],[31,-94],[-76,-70],[-19,-83],[-84,-55],[-63,-96],[-28,-79],[-75,-106],[-46,-35],[-73,12],[-24,-27],[-12,-66],[-78,-3],[-163,-46],[-30,-34],[-45,-10],[-84,-109],[-44,60],[16,38]],[[57914,97818],[6,50],[33,7],[60,79],[76,76],[48,194],[90,153],[-6,40],[54,18],[20,61],[48,-23],[37,11],[48,78],[-9,105],[37,33],[47,135],[-4,43],[-52,21],[18,40],[91,61],[-2,-63],[-26,-88],[-28,-174],[-33,-57],[-18,-83],[11,-54],[-25,-40],[-91,-46],[13,-68],[-109,-154],[-23,-101],[-49,-51],[-43,-114],[-60,-48],[0,-28],[-68,-106],[-32,37],[-66,-20],[7,76]]],"transform":{"scale":[0.00040709142340826016,0.000329387917583749],"translate":[112.92113458604918,-43.633101756278904]},"objects":{"states":{"type":"GeometryCollection","geometries":[{"arcs":[[0,1,2,3,4],[5]],"type":"Polygon","properties":{"code":"1","name":"New South Wales"}},{"arcs":[[[6,-2,7]],[[8]],[[9]]],"type":"MultiPolygon","properties":{"code":"2","name":"Victoria"}},{"arcs":[[[10,-4,11,12,13]],[[14]],[[15]],[[16]],[[17]],[[18]],[[19]],[[20]],[[21]]],"type":"MultiPolygon","properties":{"code":"3","name":"Queensland"}},{"arcs":[[[22,23,-12,-3,-7,24]],[[25]]],"type":"MultiPolygon","properties":{"code":"4","name":"South Australia"}},{"arcs":[[[26,-23,27]],[[28]],[[29]],[[30]],[[31]],[[32]],[[33]],[[34]],[[35]],[[36]],[[37]],[[38]],[[39]]],"type":"MultiPolygon","properties":{"code":"5","name":"Western Australia"}},{"arcs":[[[40]],[[41]],[[42]],[[43]],[[44]],[[45]],[[46]]],"type":"MultiPolygon","properties":{"code":"6","name":"Tasmania"}},{"arcs":[[[-13,-24,-27,47]],[[48]],[[49]],[[50]],[[51]],[[52]],[[53]],[[54]],[[55]]],"type":"MultiPolygon","properties":{"code":"7","name":"Northern Territory"}},{"arcs":[[-6]],"type":"Polygon","properties":{"code":"8","name":"Australian Capital Territory"}}]}}}