{"type":"FeatureCollection","features":[{"type":"Feature","properties":{"min_mm":300,"max_mm":400,"band":"300\u2013400 mm"},"geometry":{"type":"MultiPolygon","coordinates":[[[[128.5503,-31.8804],[128.5503,-31.5958],[128.85,-31.4931],[129.0,-31.4957],[129.0,-31.6871],[128.9631,-31.694],[128.8964,-31.717],[128.8516,-31.7394],[128.8036,-31.7579],[128.7547,-31.7875],[128.7067,-31.8086],[128.6611,-31.8336],[128.6423,-31.8508],[128.5968,-31.8633],[128.5902,-31.8719],[128.5503,-31.8804]]],[[[125.8765,-32.3297],[125.8953,-32.25],[126.1501,-31.9529],[126.2999,-31.8903],[126.6004,-31.9252],[126.8316,-31.9503],[127.1996,-32.08],[127.3502,-32.1005],[127.6498,-32.1044],[127.9503,-32.0728],[128.2141,-32.0109],[128.1465,-32.0306],[128.0545,-32.0649],[127.9031,-32.1011],[127.8786,-32.1024],[127.798,-32.1196],[127.7891,-32.1189],[127.706,-32.1367],[127.6401,-32.1565],[127.6197,-32.1677],[127.5855,-32.1749],[127.5489,-32.1907],[127.5188,-32.2144],[127.4821,-32.2164],[127.3445,-32.248],[127.3258,-32.2566],[127.2379,-32.2698],[127.2134,-32.2764],[127.1695,-32.2764],[127.1068,-32.2823],[127.0571,-32.2836],[126.9456,-32.2981],[126.8471,-32.2981],[126.7722,-32.2922],[126.7306,-32.306],[126.6728,-32.3086],[126.5963,-32.3007],[126.5556,-32.3001],[126.4571,-32.2882],[126.4001,-32.2803],[126.3439,-32.2625],[126.2763,-32.2507],[126.2291,-32.2355],[126.203,-32.2322],[126.1542,-32.2408],[126.1143,-32.2645],[126.0744,-32.2764],[126.0369,-32.2684],[126.0247,-32.2744],[125.9783,-32.2823],[125.9506,-32.2908],[125.8765,-32.3297]]],[[[124.0536,-33.3041],[124.0072,-33.3001],[123.8997,-33.1815],[123.6001,-33.173],[123.1498,-33.2546],[122.8502,-33.223],[122.5498,-33.2685],[122.2501,-33.2955],[121.9587,-33.3001],[121.9497,-33.3001],[121.6501,-33.339],[121.3496,-33.4128],[121.05,-33.4128],[120.5998,-33.4226],[120.3001,-33.4398],[119.9997,-33.4911],[119.7001,-33.5182],[119.2498,-33.6802],[119.0821,-33.75],[118.7996,-34.0294],[118.5,-34.0406],[118.3135,-34.2],[117.8999,-34.2547],[117.6793,-34.2],[117.606,-34.0498],[117.7118,-33.75],[117.6003,-33.5142],[117.4497,-33.4885],[117.2429,-33.4503],[117.2999,-33.2994],[117.2966,-32.8502],[117.2526,-32.6999],[116.8985,-32.25],[116.8496,-32.0445],[116.6998,-31.6874],[116.55,-31.2987],[116.4002,-30.9621],[116.2504,-30.7427],[116.0427,-30.5998],[115.8392,-30.3],[115.7032,-30.0003],[115.4997,-29.5852],[115.3735,-29.4001],[115.2318,-29.2499],[115.1593,-29.0997],[114.8996,-28.8797],[114.7498,-28.9567],[114.6317,-28.8691],[114.6236,-28.8434],[114.6285,-28.8303],[114.609,-28.7828],[114.7498,-28.7473],[114.7449,-28.5002],[114.5414,-28.5002],[114.5422,-28.5134],[114.5218,-28.4837],[114.4909,-28.4462],[114.4347,-28.3961],[114.4282,-28.377],[114.4078,-28.352],[114.4005,-28.3296],[114.3557,-28.2841],[114.3346,-28.2578],[114.3207,-28.2301],[114.2784,-28.2117],[114.2393,-28.1866],[114.2287,-28.1669],[114.1896,-28.1194],[114.1766,-28.1128],[114.1693,-28.0931],[114.1408,-27.9567],[114.1196,-27.8862],[114.105,-27.8493],[114.1261,-27.769],[114.1522,-27.7327],[114.1611,-27.7018],[114.1506,-27.6477],[114.1286,-27.5852],[114.1025,-27.4995],[114.0871,-27.4653],[114.1497,-27.4257],[114.4502,-27.5838],[114.6,-27.7281],[114.6847,-27.9001],[114.7498,-27.9422],[115.0502,-28.1649],[115.2001,-28.323],[115.3499,-28.4337],[115.7488,-28.5002],[115.8083,-28.6498],[115.9499,-28.8731],[116.0753,-29.2499],[116.2235,-29.5503],[116.4002,-29.7512],[116.55,-29.5786],[116.721,-29.6999],[116.8496,-29.5161],[117.15,-29.4041],[117.4497,-29.3151],[117.6003,-29.6801],[117.606,-29.8501],[117.6817,-30.0003],[117.8999,-30.1682],[118.2003,-30.2644],[118.4332,-30.1498],[118.6498,-30.0793],[118.7996,-30.1281],[118.9177,-30.3],[118.5846,-30.4502],[118.3949,-30.5998],[118.1401,-30.75],[118.1287,-31.0497],[118.3502,-31.165],[118.6498,-31.0622],[118.4926,-30.9002],[118.5187,-30.75],[118.6693,-30.5998],[118.9502,-30.4673],[119.1554,-30.3],[119.2498,-30.1228],[119.0292,-30.0003],[118.9502,-29.8382],[118.798,-29.6999],[119.0145,-29.5503],[119.1554,-29.5503],[119.2498,-29.6439],[119.5503,-29.6129],[119.6537,-29.6999],[119.7408,-29.6999],[119.8556,-29.5503],[119.8499,-29.0964],[119.9997,-29.1379],[120.3001,-28.9561],[120.5273,-29.0997],[120.45,-29.3164],[120.2204,-29.4001],[120.2407,-29.5503],[120.3001,-29.8026],[120.3498,-29.6999],[120.5908,-29.5503],[120.6413,-29.6999],[120.7504,-29.8843],[120.9132,-30.0003],[120.9002,-30.0411],[121.0109,-30.3],[121.05,-30.5503],[120.879,-30.75],[121.05,-30.9897],[121.3496,-31.1031],[121.5206,-31.1999],[121.475,-31.3501],[121.5003,-31.5286],[121.602,-31.6498],[121.7999,-31.6406],[121.8088,-31.6498],[121.7567,-31.8001],[121.9497,-31.8593],[122.0148,-31.8001],[122.2396,-31.6498],[122.3999,-31.6933],[122.5498,-31.6498],[122.7794,-31.6498],[123.0,-31.6874],[123.1751,-31.8001],[123.1368,-32.0998],[123.2996,-32.163],[123.5862,-32.25],[123.6001,-32.2665],[123.8997,-32.3844],[124.0503,-32.4298],[124.3499,-32.4977],[124.4997,-32.532],[124.8002,-32.6024],[125.0363,-32.6999],[125.0925,-32.7171],[125.0257,-32.7289],[125.0054,-32.754],[124.9581,-32.775],[124.928,-32.7942],[124.9003,-32.8284],[124.8767,-32.8429],[124.8441,-32.8548],[124.8205,-32.8699],[124.7489,-32.8989],[124.6862,-32.9101],[124.6162,-32.9187],[124.4582,-32.9358],[124.3939,-32.949],[124.354,-32.9602],[124.3052,-32.9812],[124.2351,-33.0201],[124.1692,-33.0801],[124.1236,-33.1354],[124.1008,-33.1762],[124.0813,-33.2421],[124.0536,-33.3041]],[[118.7996,-30.8929],[118.9502,-30.9041],[118.9559,-30.9002],[118.7996,-30.8929]],[[117.8421,-30.9002],[117.9919,-30.75],[117.8999,-30.547],[117.7981,-30.75],[117.8421,-30.9002]],[[117.7542,-30.4502],[117.6003,-30.2144],[117.3625,-30.3],[117.3414,-30.4502],[117.5124,-30.5998],[117.2591,-30.75],[117.2999,-31.0326],[117.3707,-31.0497],[117.4733,-31.0497],[117.6003,-30.9766],[117.6695,-30.75],[117.7542,-30.4502]],[[117.2705,-30.3],[117.0002,-29.991],[116.8162,-30.0003],[116.7837,-30.3],[117.0002,-30.3606],[117.2705,-30.3]],[[121.05,-31.8475],[120.8571,-31.8001],[120.5998,-32.2381],[120.7504,-32.2843],[120.7683,-32.25],[120.9002,-31.997],[121.05,-31.8475]]],[[[119.5503,-26.8803],[119.5373,-26.6998],[119.7001,-26.6787],[119.7001,-26.7531],[119.5503,-26.8803]]]]}},{"type":"Feature","properties":{"min_mm":400,"max_mm":600,"band":"400\u2013600 mm"},"geometry":{"type":"MultiPolygon","coordinates":[[[[123.2068,-34.0017],[123.1694,-33.9938],[123.1702,-33.9859],[123.1588,-33.976],[123.1612,-33.9457],[123.1262,-33.8976],[123.066,-33.8647],[123.0163,-33.8581],[123.0057,-33.8818],[122.9658,-33.8891],[122.943,-33.8858],[122.9056,-33.8891],[122.8307,-33.9095],[122.8127,-33.8897],[122.7671,-33.8779],[122.7346,-33.8917],[122.7069,-33.891],[122.5498,-33.8561],[122.2501,-33.7586],[121.7999,-33.783],[121.567,-33.8363],[121.5524,-33.8298],[121.5312,-33.8258],[121.5043,-33.8396],[121.4832,-33.8284],[121.4384,-33.8205],[121.4286,-33.8278],[121.3993,-33.8186],[121.361,-33.8153],[121.348,-33.8278],[121.3179,-33.8212],[121.2992,-33.8251],[121.2967,-33.839],[121.269,-33.8508],[121.2177,-33.8423],[121.1998,-33.8443],[121.1803,-33.866],[121.1583,-33.8653],[121.1233,-33.8508],[121.0924,-33.8489],[121.0728,-33.8601],[121.0427,-33.8574],[121.0142,-33.8607],[121.0085,-33.8706],[120.9393,-33.862],[120.9165,-33.866],[120.8685,-33.8561],[120.84,-33.8667],[120.8074,-33.8891],[120.7781,-33.8858],[120.7113,-33.893],[120.6804,-33.8858],[120.6389,-33.8917],[120.6014,-33.8858],[120.5615,-33.8963],[120.5566,-33.9246],[120.5297,-33.9312],[120.4671,-33.9668],[120.4312,-33.9707],[120.3962,-33.9602],[120.2993,-33.9418],[120.2309,-33.9325],[120.1682,-33.9371],[120.1186,-33.9523],[120.1129,-33.945],[120.0437,-33.9233],[120.0111,-33.9365],[119.9891,-33.9371],[119.9818,-33.9549],[119.9452,-33.9767],[119.9256,-33.9694],[119.8507,-33.9701],[119.8043,-33.9905],[119.7815,-34.0267],[119.7506,-34.0412],[119.7327,-34.061],[119.7107,-34.0617],[119.6797,-34.0808],[119.6683,-34.0794],[119.639,-34.0959],[119.6333,-34.1091],[119.5983,-34.1341],[119.5812,-34.1532],[119.5877,-34.171],[119.5543,-34.1987],[119.5307,-34.227],[119.5145,-34.256],[119.5039,-34.2883],[119.499,-34.3238],[119.5071,-34.3594],[119.5153,-34.3621],[119.442,-34.3667],[119.442,-34.3667],[119.4404,-34.3667],[119.3997,-34.3693],[119.1904,-34.4899],[119.1806,-34.4859],[119.1701,-34.4951],[119.1481,-34.4932],[119.1342,-34.4773],[119.0691,-34.4589],[118.9844,-34.451],[118.9339,-34.4549],[118.9079,-34.4648],[118.9022,-34.5017],[118.8468,-34.5017],[118.8061,-34.5123],[118.7621,-34.5393],[118.7393,-34.5742],[118.745,-34.5939],[118.7776,-34.6084],[118.7548,-34.621],[118.7442,-34.6387],[118.7157,-34.6572],[118.7011,-34.6552],[118.662,-34.6697],[118.6457,-34.6908],[118.6205,-34.6875],[118.6156,-34.6901],[118.5,-34.6605],[118.2003,-34.6579],[118.0424,-34.6499],[117.6003,-34.5913],[117.0002,-34.3983],[116.7153,-34.2],[116.4002,-34.001],[116.3684,-33.9003],[116.4393,-33.5998],[116.4954,-33.4503],[116.5622,-33.3001],[116.5076,-32.6999],[116.5247,-32.4002],[116.5215,-32.0998],[116.4262,-31.8001],[116.2504,-31.4213],[116.0997,-31.3363],[115.8001,-31.2822],[115.5331,-31.1999],[115.4305,-31.2487],[115.424,-31.2302],[115.3987,-31.1801],[115.3808,-31.1176],[115.3311,-31.0293],[115.3254,-30.9996],[115.3132,-30.9746],[115.2937,-30.9482],[115.2505,-30.8731],[115.2188,-30.8323],[115.1895,-30.8244],[115.1878,-30.7842],[115.152,-30.7052],[115.1317,-30.6525],[115.0877,-30.5787],[115.095,-30.5523],[115.0755,-30.52],[115.0559,-30.5042],[115.0714,-30.4779],[115.0502,-30.4219],[115.0511,-30.3955],[115.0421,-30.3376],[115.0201,-30.3171],[115.0388,-30.3],[115.0429,-30.2829],[115.0372,-30.2532],[115.025,-30.2348],[114.9989,-30.2242],[114.9949,-30.1867],[115.0063,-30.159],[115.0014,-30.132],[114.9835,-30.0787],[114.9631,-30.0714],[114.9591,-30.049],[114.9688,-30.0062],[114.9623,-29.9746],[114.9729,-29.9581],[114.9819,-29.9205],[114.9778,-29.8626],[114.981,-29.8448],[114.9648,-29.8079],[114.9591,-29.7684],[114.9591,-29.6695],[114.9778,-29.5839],[114.977,-29.5576],[114.9973,-29.5114],[114.9957,-29.4877],[114.9582,-29.4027],[114.9582,-29.3652],[114.946,-29.3342],[114.9265,-29.3125],[114.9143,-29.2776],[114.9183,-29.2492],[114.9012,-29.2117],[114.8874,-29.1583],[114.8719,-29.1168],[114.832,-29.0661],[114.784,-29.0187],[114.6871,-28.9324],[114.6326,-28.8711],[114.6317,-28.8691],[114.7498,-28.9567],[114.8996,-28.8797],[115.1593,-29.0997],[115.2318,-29.2499],[115.3735,-29.4001],[115.4997,-29.5852],[115.7032,-30.0003],[115.8392,-30.3],[116.0427,-30.5998],[116.2504,-30.7427],[116.4002,-30.9621],[116.55,-31.2987],[116.6998,-31.6874],[116.8496,-32.0445],[116.8985,-32.25],[117.2526,-32.6999],[117.2966,-32.8502],[117.2999,-33.2994],[117.2429,-33.4503],[117.4497,-33.4885],[117.6003,-33.5142],[117.7118,-33.75],[117.606,-34.0498],[117.6793,-34.2],[117.8999,-34.2547],[118.3135,-34.2],[118.5,-34.0406],[118.7996,-34.0294],[119.0821,-33.75],[119.2498,-33.6802],[119.7001,-33.5182],[119.9997,-33.4911],[120.3001,-33.4398],[120.5998,-33.4226],[121.05,-33.4128],[121.3496,-33.4128],[121.6501,-33.339],[121.9497,-33.3001],[121.9587,-33.3001],[122.2501,-33.2955],[122.5498,-33.2685],[122.8502,-33.223],[123.1498,-33.2546],[123.6001,-33.173],[123.8997,-33.1815],[124.0072,-33.3001],[124.0536,-33.3041],[124.0528,-33.3067],[124.0332,-33.3396],[123.999,-33.424],[123.9868,-33.4793],[123.9803,-33.5498],[123.9624,-33.5702],[123.9355,-33.5768],[123.929,-33.5873],[123.8924,-33.5913],[123.8679,-33.6084],[123.872,-33.6341],[123.8533,-33.64],[123.8101,-33.6651],[123.7743,-33.698],[123.7572,-33.723],[123.7466,-33.7744],[123.7556,-33.7929],[123.7442,-33.808],[123.7173,-33.8126],[123.6921,-33.8324],[123.6562,-33.8469],[123.6334,-33.8798],[123.5903,-33.8811],[123.561,-33.9029],[123.5463,-33.9352],[123.5121,-33.9424],[123.5081,-33.9233],[123.4869,-33.9108],[123.412,-33.8937],[123.3582,-33.8989],[123.3306,-33.9187],[123.3265,-33.9352],[123.2923,-33.974],[123.2752,-33.976],[123.2557,-33.9958],[123.2272,-33.9892],[123.2158,-33.9984],[123.2068,-34.0017]]],[[[114.5422,-28.5134],[114.5414,-28.5002],[114.7449,-28.5002],[114.7498,-28.7473],[114.609,-28.7828],[114.6057,-28.7743],[114.6147,-28.7624],[114.6195,-28.7275],[114.6057,-28.6873],[114.6122,-28.6649],[114.6016,-28.6254],[114.5756,-28.5786],[114.556,-28.5338],[114.5422,-28.5134]]]]}},{"type":"Feature","properties":{"min_mm":600,"max_mm":800,"band":"600\u2013800 mm"},"geometry":{"type":"MultiPolygon","coordinates":[[[[123.1694,-33.9938],[123.2068,-34.0017],[123.1669,-34.0162],[123.1694,-33.9938]]],[[[121.567,-33.8363],[121.7999,-33.783],[122.2501,-33.7586],[122.5498,-33.8561],[122.7069,-33.891],[122.6548,-33.8891],[122.6002,-33.9003],[122.5799,-33.9194],[122.5905,-33.9437],[122.5766,-33.9523],[122.5571,-33.9365],[122.5066,-33.9404],[122.4447,-33.9194],[122.3991,-33.9121],[122.3592,-33.9147],[122.2876,-33.949],[122.268,-33.9681],[122.2803,-33.9898],[122.2493,-34.0043],[122.2241,-33.9951],[122.1964,-34.007],[122.1134,-34.0175],[122.1101,-33.9925],[122.1191,-33.98],[122.0857,-33.9029],[122.0303,-33.8449],[122.0083,-33.8317],[121.988,-33.8284],[121.9692,-33.8363],[121.9334,-33.8344],[121.9025,-33.8469],[121.887,-33.8825],[121.8357,-33.8871],[121.786,-33.9082],[121.7421,-33.8785],[121.7006,-33.862],[121.6778,-33.8627],[121.6623,-33.8838],[121.6468,-33.8877],[121.633,-33.8732],[121.5858,-33.8449],[121.567,-33.8363]]],[[[119.442,-34.3667],[119.5153,-34.3621],[119.5283,-34.3673],[119.5397,-34.3818],[119.569,-34.3765],[119.5706,-34.3897],[119.5364,-34.393],[119.5169,-34.4101],[119.4803,-34.4055],[119.4925,-34.393],[119.4827,-34.3752],[119.4526,-34.3785],[119.442,-34.3667]]],[[[119.1904,-34.4899],[119.3997,-34.3693],[119.4404,-34.3667],[119.4135,-34.3746],[119.3907,-34.4213],[119.4029,-34.4332],[119.3988,-34.4602],[119.3842,-34.4675],[119.3826,-34.4852],[119.3557,-34.4747],[119.3663,-34.4629],[119.3459,-34.4464],[119.3093,-34.4457],[119.2849,-34.4549],[119.2792,-34.476],[119.2849,-34.5096],[119.258,-34.5188],[119.2515,-34.5327],[119.227,-34.5037],[119.1904,-34.4899]]],[[[115.4305,-31.2487],[115.5331,-31.1999],[115.8001,-31.2822],[116.0997,-31.3363],[116.2504,-31.4213],[116.4262,-31.8001],[116.5215,-32.0998],[116.5247,-32.4002],[116.5076,-32.6999],[116.5622,-33.3001],[116.4954,-33.4503],[116.4393,-33.5998],[116.3684,-33.9003],[116.4002,-34.001],[116.7153,-34.2],[117.0002,-34.3983],[117.6003,-34.5913],[118.0424,-34.6499],[118.2003,-34.6579],[118.5,-34.6605],[118.6156,-34.6901],[118.6009,-34.698],[118.5553,-34.7053],[118.4764,-34.7362],[118.4527,-34.7501],[118.4243,-34.7777],[118.4072,-34.8074],[118.3958,-34.8436],[118.3966,-34.8766],[118.4226,-34.8818],[118.4259,-34.8976],[118.3909,-34.9082],[118.3306,-34.897],[118.2997,-34.9121],[118.259,-34.9088],[118.2207,-34.9214],[118.2077,-34.9345],[118.1792,-34.9378],[118.1702,-34.9642],[118.2101,-34.9787],[118.1963,-35.0149],[118.1751,-35.0103],[118.1686,-34.9958],[118.1018,-34.9859],[118.0896,-34.9899],[117.9797,-34.9642],[117.9789,-34.953],[117.9488,-34.9438],[117.9479,-34.9569],[117.9178,-34.9497],[117.7501,-34.9168],[117.4497,-34.8094],[117.2999,-34.7474],[117.0059,-34.6499],[117.0002,-34.6473],[116.6998,-34.5221],[116.6395,-34.4997],[116.3269,-34.3502],[116.0997,-34.0524],[116.0354,-33.9003],[116.033,-33.75],[116.0997,-33.5478],[116.2007,-33.3001],[116.2976,-32.9997],[116.3245,-32.6999],[116.3399,-32.4002],[116.3236,-32.0998],[116.2504,-31.8962],[116.0159,-31.9503],[115.9564,-32.25],[115.919,-32.4002],[115.8123,-32.8502],[115.7236,-33.4503],[115.6503,-33.6539],[115.4997,-33.7375],[115.2774,-33.75],[115.0014,-33.6684],[115.0144,-33.6605],[115.0283,-33.6341],[115.0055,-33.5623],[115.0038,-33.53],[115.0364,-33.5445],[115.0559,-33.5445],[115.0633,-33.5564],[115.0885,-33.5689],[115.1015,-33.584],[115.1097,-33.6117],[115.1227,-33.6236],[115.2082,-33.6512],[115.2636,-33.6572],[115.3092,-33.6539],[115.3865,-33.6328],[115.4126,-33.619],[115.4419,-33.5952],[115.5461,-33.4799],[115.5738,-33.4536],[115.6039,-33.3976],[115.6226,-33.3409],[115.6397,-33.3185],[115.6698,-33.3067],[115.6796,-33.2849],[115.6829,-33.1769],[115.6886,-33.1209],[115.6804,-33.0445],[115.669,-32.978],[115.6584,-32.9351],[115.6527,-32.8949],[115.6332,-32.8376],[115.608,-32.667],[115.6324,-32.5959],[115.6552,-32.5781],[115.7073,-32.5214],[115.7171,-32.5392],[115.7138,-32.5563],[115.6739,-32.5728],[115.6422,-32.6136],[115.647,-32.6479],[115.6715,-32.7019],[115.6723,-32.7283],[115.691,-32.7546],[115.6926,-32.7678],[115.7228,-32.783],[115.7268,-32.7546],[115.7106,-32.7401],[115.713,-32.7276],[115.6975,-32.6907],[115.6845,-32.6782],[115.6845,-32.6532],[115.6674,-32.6347],[115.6707,-32.6143],[115.7032,-32.6433],[115.7293,-32.6347],[115.7447,-32.6466],[115.7675,-32.6281],[115.7765,-32.5939],[115.7618,-32.5899],[115.7586,-32.5669],[115.7228,-32.5682],[115.722,-32.5399],[115.7114,-32.5214],[115.7277,-32.5168],[115.7464,-32.4753],[115.7496,-32.4391],[115.7456,-32.4088],[115.713,-32.3699],[115.7342,-32.364],[115.7423,-32.3495],[115.7399,-32.3211],[115.7309,-32.3106],[115.7016,-32.3053],[115.6983,-32.2777],[115.726,-32.2764],[115.7561,-32.25],[115.7553,-32.2236],[115.7684,-32.2078],[115.7749,-32.1828],[115.7635,-32.1637],[115.7643,-32.1393],[115.7561,-32.1294],[115.7618,-32.1057],[115.7374,-32.055],[115.7773,-32.0286],[115.7863,-32.0115],[115.8245,-32.024],[115.8286,-32.0069],[115.8547,-31.9951],[115.8473,-31.9792],[115.8221,-31.9766],[115.8099,-32.0003],[115.792,-32.0049],[115.7732,-31.9898],[115.7732,-32.0254],[115.7504,-32.0247],[115.7537,-31.9746],[115.7553,-31.9022],[115.748,-31.835],[115.7277,-31.8066],[115.7317,-31.7763],[115.7179,-31.7289],[115.691,-31.6762],[115.6853,-31.6538],[115.6641,-31.6228],[115.6365,-31.5688],[115.6031,-31.5194],[115.5795,-31.4957],[115.564,-31.4654],[115.5502,-31.4272],[115.5135,-31.3718],[115.5037,-31.3626],[115.4402,-31.277],[115.4305,-31.2487]]]]}},{"type":"Feature","properties":{"min_mm":800,"max_mm":1200,"band":"800\u20131200 mm"},"geometry":{"type":"MultiPolygon","coordinates":[[[[118.1751,-35.0103],[118.1963,-35.0149],[118.193,-35.0235],[118.1767,-35.0136],[118.1751,-35.0103]]],[[[117.9797,-34.9642],[118.0896,-34.9899],[118.0619,-34.9991],[118.0505,-35.0149],[118.0098,-35.0169],[118.0001,-35.0103],[117.9618,-35.0129],[117.9797,-34.978],[117.9797,-34.9642]]],[[[115.0014,-33.6684],[115.2774,-33.75],[115.4997,-33.7375],[115.6503,-33.6539],[115.7236,-33.4503],[115.8123,-32.8502],[115.919,-32.4002],[115.9564,-32.25],[116.0159,-31.9503],[116.2504,-31.8962],[116.3236,-32.0998],[116.3399,-32.4002],[116.3245,-32.6999],[116.2976,-32.9997],[116.2007,-33.3001],[116.0997,-33.5478],[116.033,-33.75],[116.0354,-33.9003],[116.0997,-34.0524],[116.3269,-34.3502],[116.6395,-34.4997],[116.6998,-34.5221],[117.0002,-34.6473],[117.0059,-34.6499],[117.2999,-34.7474],[117.4497,-34.8094],[117.7501,-34.9168],[117.9178,-34.9497],[117.9479,-34.9569],[117.9463,-34.98],[117.9186,-35.0169],[117.9195,-35.036],[117.8584,-35.0274],[117.8478,-35.0452],[117.8535,-35.0564],[117.8787,-35.0656],[117.9089,-35.0847],[117.9349,-35.0775],[117.939,-35.0887],[117.9789,-35.0966],[117.9536,-35.1223],[117.8926,-35.1197],[117.8665,-35.1091],[117.8315,-35.0834],[117.7517,-35.0518],[117.6752,-35.0446],[117.6459,-35.0604],[117.6516,-35.0821],[117.6369,-35.0887],[117.628,-35.1124],[117.6345,-35.1243],[117.6141,-35.1328],[117.6068,-35.1164],[117.5604,-35.0874],[117.5246,-35.0742],[117.4928,-35.09],[117.4806,-35.0749],[117.4236,-35.0446],[117.3617,-35.0195],[117.365,-35.0024],[117.3976,-35.0077],[117.4293,-35.0222],[117.4554,-35.0169],[117.4798,-34.9965],[117.4692,-34.9727],[117.4554,-34.9668],[117.4212,-34.9846],[117.4049,-34.9734],[117.3691,-34.9695],[117.3577,-34.9905],[117.3357,-34.9958],[117.3259,-35.0156],[117.3235,-35.0439],[117.2844,-35.0255],[117.264,-35.0208],[117.2469,-35.0287],[117.2054,-35.0169],[117.1826,-35.0189],[117.1623,-35.0294],[117.1614,-35.0446],[117.1468,-35.0564],[117.1004,-35.0334],[117.0678,-35.038],[117.0336,-35.0255],[117.0116,-35.0301],[116.966,-35.0195],[116.9335,-35.0366],[116.9245,-35.0637],[116.8846,-35.0478],[116.8586,-35.0511],[116.8309,-35.0432],[116.8138,-35.0274],[116.7763,-35.0156],[116.7397,-35.0248],[116.7324,-35.0399],[116.7079,-35.0287],[116.6583,-35.0511],[116.629,-35.0459],[116.6053,-35.0314],[116.5915,-35.0334],[116.5329,-35.0044],[116.5011,-35.009],[116.4783,-35.0044],[116.4279,-34.9688],[116.379,-34.9451],[116.2723,-34.8851],[116.2276,-34.8687],[116.1966,-34.8634],[116.1339,-34.8443],[116.0965,-34.8496],[116.0273,-34.837],[116.002,-34.841],[116.0045,-34.8186],[115.9866,-34.7876],[115.9597,-34.7613],[115.954,-34.7277],[115.8677,-34.6467],[115.8001,-34.5867],[115.735,-34.5327],[115.6698,-34.482],[115.5909,-34.4299],[115.5591,-34.4154],[115.5428,-34.4161],[115.52,-34.397],[115.4858,-34.3851],[115.4533,-34.3614],[115.4174,-34.3423],[115.3694,-34.3225],[115.3149,-34.3113],[115.2627,-34.3067],[115.218,-34.31],[115.1683,-34.3212],[115.165,-34.3014],[115.1878,-34.2902],[115.1683,-34.2791],[115.1577,-34.2962],[115.1602,-34.312],[115.1707,-34.3265],[115.1675,-34.3522],[115.1561,-34.3693],[115.1374,-34.37],[115.1121,-34.3337],[115.0258,-34.2567],[115.0323,-34.2375],[115.0242,-34.2231],[115.0388,-34.2013],[115.0193,-34.1394],[114.9916,-34.1018],[115.0038,-34.0814],[114.9973,-34.0682],[115.0006,-34.0155],[114.9794,-33.9615],[114.9916,-33.953],[114.9827,-33.8805],[114.9786,-33.8699],[114.9941,-33.8489],[114.9998,-33.7942],[114.9884,-33.7626],[114.9924,-33.7533],[114.9745,-33.7026],[114.99,-33.696],[114.9989,-33.6703],[115.0014,-33.6684]]]]}}]}