{"type":"FeatureCollection","features":[{"type":"Feature","properties":{"name":"Wheat belt (300-600 mm a year, south of 26\u00b0S)"},"geometry":{"type":"MultiLineString","coordinates":[[[138.5022,-34.7264],[138.4932,-34.7218],[138.4721,-34.6974],[138.4306,-34.6684],[138.442,-34.646],[138.4061,-34.5992],[138.3646,-34.5781],[138.3524,-34.563],[138.332,-34.5202],[138.3044,-34.5057],[138.2636,-34.474],[138.2579,-34.4339],[138.24,-34.3858],[138.2254,-34.366],[138.2311,-34.3443],[138.2221,-34.31],[138.1953,-34.2744],[138.1586,-34.2725],[138.1676,-34.2382],[138.1594,-34.2092],[138.1464,-34.1914],[138.0894,-34.1321],[138.0682,-34.1407],[138.0463,-34.171],[138.0308,-34.2026],[138.0275,-34.2224],[138.0088,-34.2362],[138.0015,-34.2619],[138.021,-34.285],[138.0072,-34.3489],[137.986,-34.37],[137.9453,-34.3989],[137.916,-34.4306],[137.8989,-34.4932],[137.8859,-34.5149],[137.8842,-34.5676],[137.8761,-34.5986],[137.907,-34.6157],[137.8859,-34.6467],[137.8769,-34.6684],[137.881,-34.6954],[137.8688,-34.7224],[137.8582,-34.7738],[137.8631,-34.7804],[137.8321,-34.8127],[137.8004,-34.8779],[137.7841,-34.9464],[137.7735,-34.9596],[137.7572,-34.9984],[137.7637,-35.0406],[137.7271,-35.0492],[137.7491,-35.0847],[137.7434,-35.1038],[137.7588,-35.1144],[137.732,-35.1315],[137.688,-35.148],[137.6815,-35.1658],[137.6375,-35.1684],[137.6107,-35.1467],[137.5545,-35.1177],[137.5496,-35.117]],[[137.3884,-34.949],[137.4096,-34.9418],[137.4486,-34.9102],[137.4568,-34.8897],[137.4592,-34.8107],[137.4763,-34.7633],[137.4779,-34.7389],[137.4885,-34.7106],[137.4926,-34.669],[137.5056,-34.6473],[137.5097,-34.6236],[137.5073,-34.5827],[137.4755,-34.5195],[137.4869,-34.4806],[137.4804,-34.4358],[137.4674,-34.4266],[137.4446,-34.4398],[137.4283,-34.4701],[137.4144,-34.451],[137.4381,-34.4279],[137.447,-34.3976],[137.4722,-34.3976],[137.482,-34.3713],[137.4836,-34.343],[137.4983,-34.3186],[137.4967,-34.2823],[137.4999,-34.2263],[137.4836,-34.1914],[137.4641,-34.1704],[137.4495,-34.1394],[137.5162,-34.1348],[137.526,-34.1084],[137.5431,-34.0887],[137.5675,-34.0439],[137.5594,-34.0221],[137.5309,-34.001],[137.5586,-33.9892],[137.5634,-33.9714],[137.6017,-33.9358],[137.631,-33.922],[137.6294,-33.9022],[137.6009,-33.8772],[137.6164,-33.866],[137.6424,-33.8324],[137.7263,-33.7685],[137.7369,-33.7382],[137.7735,-33.6973],[137.7979,-33.6855],[137.8346,-33.6427],[137.8614,-33.6275],[137.8793,-33.5966],[137.8924,-33.588],[137.9192,-33.5873],[137.9363,-33.5735],[137.9648,-33.5742],[137.9762,-33.5498],[137.938,-33.5445],[137.9437,-33.5083],[137.9095,-33.4384],[137.8704,-33.3969],[137.8745,-33.3653],[137.8826,-33.3594],[137.881,-33.3225],[137.8606,-33.3291],[137.8427,-33.3166],[137.8175,-33.2863],[137.8126,-33.2612],[137.8386,-33.2072],[137.8802,-33.1835],[137.9119,-33.1723],[137.929,-33.1749],[137.9404,-33.1585],[137.9583,-33.1624],[137.977,-33.1453],[138.0015,-33.144],[138.0178,-33.1611],[138.0479,-33.1361],[138.0544,-33.1143],[138.0365,-33.1031],[138.0422,-33.0774],[138.0186,-33.0359],[137.9998,-33.0234],[137.9656,-33.0168],[137.9526,-33.0063],[137.9583,-32.9898],[137.9404,-32.9483],[137.9249,-32.8745],[137.9127,-32.8534],[137.9021,-32.8021],[137.903,-32.777],[137.942,-32.7559],[137.9201,-32.7441],[137.8875,-32.7158],[137.8435,-32.6986],[137.8598,-32.6894],[137.8671,-32.6631],[137.8305,-32.6314]],[[128.0606,-26.0],[128.1001,-26.0238],[128.0252,-26.2498],[128.1001,-26.4099],[128.2499,-26.3842],[128.5503,-26.153],[128.85,-26.3196],[129.1504,-26.3223],[129.45,-26.3361],[129.9003,-26.481],[130.1152,-26.4],[130.1624,-26.2498],[130.1999,-26.2327],[130.3986,-26.1003],[130.3732,-26.0]],[[143.7759,-26.0],[143.8213,-26.2498],[143.8514,-26.4],[143.7985,-26.5502],[143.6674,-26.85],[143.7057,-27.0002],[143.8498,-27.2143],[144.1502,-27.234],[144.2585,-27.7499],[143.9996,-28.0536],[143.827,-28.5002],[143.9907,-28.8],[143.9996,-28.9429],[144.1348,-29.0997],[144.1283,-29.4001],[144.2626,-29.2499],[144.2528,-28.9502],[144.3001,-28.6063],[144.4026,-28.9502],[144.5997,-29.0325],[144.7503,-28.9238],[145.0499,-28.9917],[145.1997,-29.1122],[145.2893,-29.2499],[145.0564,-29.6999],[144.8423,-29.8501],[144.7552,-30.1498],[144.7503,-30.192],[144.5582,-30.5998],[144.6062,-30.75],[144.467,-30.9002],[144.5215,-31.3501],[144.4849,-31.6498],[144.3001,-31.7935],[144.2944,-31.8001],[144.2178,-31.9503],[144.3343,-32.25],[144.3945,-32.4002],[144.3001,-32.6894],[144.1633,-32.9997],[144.1502,-33.4141],[144.2162,-33.75],[144.1502,-33.9154],[143.9443,-34.0498],[143.7,-34.1776],[143.0999,-34.6631],[143.056,-34.9497],[143.0193,-35.2501],[142.8101,-35.4003],[142.8003,-35.4036],[142.6497,-35.2652],[142.3501,-35.1651],[142.0496,-35.2758],[141.75,-35.1677],[141.2998,-35.1526],[140.8503,-34.893],[140.0996,-34.6704],[139.809,-34.8001],[139.3498,-34.8048],[139.349,-34.6499],[139.3229,-34.3502],[139.239,-34.0498],[139.1308,-33.75],[139.1275,-33.4503],[139.0982,-33.3001],[139.2228,-32.9997],[139.0502,-32.8482],[138.7497,-32.7303],[138.6382,-32.5497],[138.4501,-32.3673],[138.354,-32.5497],[138.1497,-32.4536],[138.0959,-32.25],[137.9998,-32.0543],[137.9249,-32.25],[137.8907,-32.5497],[137.8305,-32.6314]],[[134.8424,-33.6091],[134.8408,-33.5933],[134.8636,-33.5485],[134.8603,-33.5056],[134.8432,-33.4305],[134.8269,-33.3818],[134.8017,-33.3284],[134.7602,-33.308],[134.739,-33.2757],[134.6877,-33.25],[134.6633,-33.2329],[134.7178,-33.2309],[134.7178,-33.1973],[134.6999,-33.173],[134.6665,-33.1611],[134.634,-33.1624],[134.6014,-33.1413],[134.5583,-33.1618],[134.5762,-33.1894],[134.6063,-33.1973],[134.6242,-33.1954],[134.6438,-33.2237],[134.6324,-33.2441],[134.6087,-33.2178],[134.5737,-33.1921],[134.5477,-33.1894],[134.5412,-33.1809],[134.5062,-33.1618],[134.45,-33.1446],[134.415,-33.1492],[134.3848,-33.173],[134.3686,-33.1756],[134.3596,-33.1275],[134.3392,-33.1123],[134.3311,-33.0959],[134.3067,-33.0886],[134.2798,-33.0531],[134.2619,-33.0603],[134.2627,-33.0834],[134.2953,-33.1183],[134.3124,-33.1123],[134.327,-33.1321],[134.3506,-33.1387],[134.3466,-33.1604],[134.349,-33.1907],[134.3287,-33.1993],[134.3173,-33.1874],[134.2603,-33.1525],[134.2668,-33.1387],[134.2595,-33.0946],[134.2529,-33.0939],[134.2375,-33.0511],[134.2228,-33.0399],[134.2,-33.0353],[134.1691,-33.0504],[134.1471,-33.0287],[134.1487,-33.0162],[134.1674,-33.0096],[134.1902,-33.0155],[134.2057,-32.9878],[134.2016,-32.9641],[134.1788,-32.9325],[134.1617,-32.9246],[134.1276,-32.9345],[134.1194,-32.9147],[134.0917,-32.9266],[134.0714,-32.9127],[134.0771,-32.8824],[134.0991,-32.8758],[134.1316,-32.8567],[134.1381,-32.8324],[134.1202,-32.7849],[134.0909,-32.7507],[134.06,-32.7223],[134.0901,-32.7118],[134.1072,-32.721],[134.1455,-32.7197],[134.165,-32.7368],[134.1992,-32.7494],[134.1894,-32.7704],[134.1968,-32.7955],[134.2122,-32.7955],[134.231,-32.781],[134.2318,-32.7625],[134.2643,-32.7303],[134.2725,-32.7098],[134.2871,-32.6999],[134.2839,-32.6855],[134.2945,-32.6617],[134.2831,-32.6538],[134.2782,-32.609],[134.266,-32.5741],[134.2505,-32.5504],[134.2415,-32.5418]],[[136.6393,-33.8884],[136.7997,-33.7494],[137.1002,-33.3686],[137.1002,-33.2968],[136.6499,-33.1749],[136.5001,-33.0656],[136.3503,-32.974],[136.0898,-32.9997],[136.0482,-33.1499],[135.8235,-33.1499],[135.5996,-33.1334],[135.4498,-32.949],[135.2129,-32.8502],[135.0004,-32.7915],[134.6999,-32.5557],[134.4003,-32.4588],[134.2497,-32.5465],[134.2415,-32.5418]],[[128.2141,-32.0109],[127.9503,-32.0728],[127.6498,-32.1044],[127.3502,-32.1005],[127.1996,-32.08],[126.8316,-31.9503],[126.6004,-31.9252],[126.2999,-31.8903],[126.1501,-31.9529],[125.8953,-32.25],[125.8765,-32.3297]],[[128.2141,-32.0109],[128.1465,-32.0306],[128.0545,-32.0649],[127.9031,-32.1011],[127.8786,-32.1024],[127.798,-32.1196],[127.7891,-32.1189],[127.706,-32.1367],[127.6401,-32.1565],[127.6197,-32.1677],[127.5855,-32.1749],[127.5489,-32.1907],[127.5188,-32.2144],[127.4821,-32.2164],[127.3445,-32.248],[127.3258,-32.2566],[127.2379,-32.2698],[127.2134,-32.2764],[127.1695,-32.2764],[127.1068,-32.2823],[127.0571,-32.2836],[126.9456,-32.2981],[126.8471,-32.2981],[126.7722,-32.2922],[126.7306,-32.306],[126.6728,-32.3086],[126.5963,-32.3007],[126.5556,-32.3001],[126.4571,-32.2882],[126.4001,-32.2803],[126.3439,-32.2625],[126.2763,-32.2507],[126.2291,-32.2355],[126.203,-32.2322],[126.1542,-32.2408],[126.1143,-32.2645],[126.0744,-32.2764],[126.0369,-32.2684],[126.0247,-32.2744],[125.9783,-32.2823],[125.9506,-32.2908],[125.8765,-32.3297]],[[125.0925,-32.7171],[125.0363,-32.6999],[124.8002,-32.6024],[124.4997,-32.532],[124.3499,-32.4977],[124.0503,-32.4298],[123.8997,-32.3844],[123.6001,-32.2665],[123.5862,-32.25],[123.2996,-32.163],[123.1368,-32.0998],[123.1751,-31.8001],[123.0,-31.6874],[122.7794,-31.6498],[122.5498,-31.6498],[122.3999,-31.6933],[122.2396,-31.6498],[122.0148,-31.8001],[121.9497,-31.8593],[121.7567,-31.8001],[121.8088,-31.6498],[121.7999,-31.6406],[121.602,-31.6498],[121.5003,-31.5286],[121.475,-31.3501],[121.5206,-31.1999],[121.3496,-31.1031],[121.05,-30.9897],[120.879,-30.75],[121.05,-30.5503],[121.0109,-30.3],[120.9002,-30.0411],[120.9132,-30.0003],[120.7504,-29.8843],[120.6413,-29.6999],[120.5908,-29.5503],[120.3498,-29.6999],[120.3001,-29.8026],[120.2407,-29.5503],[120.2204,-29.4001],[120.45,-29.3164],[120.5273,-29.0997],[120.3001,-28.9561],[119.9997,-29.1379],[119.8499,-29.0964],[119.8556,-29.5503],[119.7408,-29.6999],[119.6537,-29.6999],[119.5503,-29.6129],[119.2498,-29.6439],[119.1554,-29.5503],[119.0145,-29.5503],[118.798,-29.6999],[118.9502,-29.8382],[119.0292,-30.0003],[119.2498,-30.1228],[119.1554,-30.3],[118.9502,-30.4673],[118.6693,-30.5998],[118.5187,-30.75],[118.4926,-30.9002],[118.6498,-31.0622],[118.3502,-31.165],[118.1287,-31.0497],[118.1401,-30.75],[118.3949,-30.5998],[118.5846,-30.4502],[118.9177,-30.3],[118.7996,-30.1281],[118.6498,-30.0793],[118.4332,-30.1498],[118.2003,-30.2644],[117.8999,-30.1682],[117.6817,-30.0003],[117.606,-29.8501],[117.6003,-29.6801],[117.4497,-29.3151],[117.15,-29.4041],[116.8496,-29.5161],[116.721,-29.6999],[116.55,-29.5786],[116.4002,-29.7512],[116.2235,-29.5503],[116.0753,-29.2499],[115.9499,-28.8731],[115.8083,-28.6498],[115.7488,-28.5002],[115.3499,-28.4337],[115.2001,-28.323],[115.0502,-28.1649],[114.7498,-27.9422],[114.6847,-27.9001],[114.6,-27.7281],[114.4502,-27.5838],[114.1497,-27.4257],[114.0871,-27.4653]],[[117.7542,-30.4502],[117.6695,-30.75],[117.6003,-30.9766],[117.4733,-31.0497],[117.3707,-31.0497],[117.2999,-31.0326],[117.2591,-30.75],[117.5124,-30.5998],[117.3414,-30.4502],[117.3625,-30.3],[117.6003,-30.2144],[117.7542,-30.4502]],[[138.5909,-31.1999],[138.4501,-31.5991],[138.4501,-31.7026],[138.595,-31.8001],[138.7326,-32.0998],[138.7554,-32.0998],[138.8035,-31.8001],[138.7497,-31.6314],[138.8181,-31.5003],[138.7497,-31.2315],[138.5909,-31.1999]],[[150.7067,-26.0],[150.6003,-26.3071],[150.7118,-26.4],[150.8999,-26.429],[151.2003,-26.5845],[151.4014,-26.85],[151.4999,-26.9554],[151.6498,-27.0983],[151.7963,-27.2999],[151.7735,-27.4501],[151.4999,-27.6985],[151.2003,-27.6991],[151.123,-27.9001],[151.3501,-27.933],[151.4999,-27.8289],[151.6677,-27.9001],[151.6538,-28.0503],[151.3501,-28.3362],[151.2451,-28.5002],[151.0603,-28.8],[150.8999,-28.8184],[150.6003,-28.9423],[150.5864,-28.9502],[150.2705,-29.2499],[149.8504,-29.6313],[149.6078,-30.0003],[149.55,-30.2987],[149.5076,-30.4502],[149.2503,-30.6893],[149.1241,-30.9002],[149.002,-31.0497],[148.8555,-31.1999],[148.8204,-31.3501],[148.932,-31.8001],[148.8001,-32.4707],[148.4997,-32.3824],[148.45,-32.4002],[148.3075,-32.6999],[148.3002,-32.9997],[148.2961,-33.3001],[148.3498,-33.3607],[148.4997,-33.5307],[148.4997,-33.723],[148.2481,-33.75],[148.1878,-33.9003],[148.4687,-34.0498],[148.2863,-34.2],[148.2,-34.2231],[148.0502,-34.4194],[147.8801,-34.6499],[147.7864,-35.0999],[147.6,-35.2013],[147.3003,-35.428],[147.1041,-35.5498],[146.9999,-35.7883],[146.7899,-35.8502],[146.7312,-35.9998],[146.4748,-36.15],[146.3999,-36.3305],[145.7998,-36.5275],[145.2242,-36.8997],[145.1289,-37.0499],[144.9001,-37.0604],[144.7503,-37.0169],[144.6917,-37.0499],[144.4499,-37.0624],[144.3001,-36.9254],[144.0892,-37.2001],[143.8669,-37.3503],[143.7342,-37.3503],[143.4004,-37.3325],[143.2033,-37.3503],[143.4004,-37.3944],[143.4663,-37.65],[143.6813,-37.8002],[143.8498,-37.8286],[144.1006,-37.8002],[144.4499,-37.5888],[144.7503,-37.4603],[144.9644,-37.4998],[144.9758,-37.8002],[144.9612,-37.8543]],[[144.9612,-37.8543],[144.9359,-37.8424],[144.9001,-37.8424],[144.9042,-37.8615],[144.8773,-37.8674],[144.8684,-37.8589],[144.8089,-37.8806],[144.7983,-37.905],[144.7992,-37.9228],[144.7438,-37.9392],[144.699,-37.9735],[144.6884,-37.9735],[144.6502,-38.0018],[144.5923,-38.0045],[144.5622,-38.0328],[144.5158,-38.046],[144.5077,-38.0901],[144.4873,-38.0782],[144.4588,-38.0776],[144.4482,-38.0868],[144.4124,-38.0842],[144.3978,-38.0736],[144.3815,-38.0974],[144.366,-38.1053],[144.3562,-38.1382],[144.3855,-38.1435],[144.4026,-38.1553],[144.4328,-38.1395],[144.4523,-38.156],[144.4808,-38.1645],[144.5272,-38.1606],[144.5647,-38.1514],[144.6322,-38.1072],[144.6933,-38.1204],[144.7202,-38.1461],[144.7194,-38.1731],[144.7104,-38.1981],[144.6933,-38.1949],[144.6664,-38.21],[144.6257,-38.2568],[144.6143,-38.2924],[144.5492,-38.2732],[144.5126,-38.2739],[144.5003,-38.2904],[144.436,-38.2812],[144.3782,-38.3022],[144.3701,-38.3115],[144.3294,-38.326],[144.3172,-38.3457],[144.3033,-38.3483],[144.2862,-38.3675],[144.252,-38.3885],[144.182,-38.4175],[144.1796,-38.4294],[144.1478,-38.4333]],[[144.1478,-38.4333],[143.9996,-38.2891],[143.8498,-38.2963],[143.323,-38.1],[143.0999,-37.9136],[142.8003,-37.9195],[142.6497,-37.9142],[142.5284,-37.65],[142.6497,-37.4195],[142.7165,-37.2001],[142.4999,-36.9689],[142.3501,-36.9735],[142.2003,-37.1737],[142.0675,-37.3503],[142.0496,-37.5756],[141.8998,-37.7113],[141.8762,-37.4998],[141.6002,-37.295],[141.1915,-37.2001],[141.0001,-37.1816],[140.6997,-37.2462],[140.4001,-37.1546],[140.0996,-37.0328],[139.8,-37.0716],[139.7536,-37.0769]],[[139.7536,-37.0769],[139.7447,-37.0749],[139.7398,-37.0466],[139.7422,-37.0242],[139.7219,-37.0011],[139.6934,-36.9814],[139.6706,-36.959],[139.6755,-36.9425],[139.6966,-36.9405],[139.7479,-36.9096],[139.7797,-36.899],[139.8187,-36.8687],[139.8505,-36.8233],[139.8619,-36.7679],[139.8611,-36.6869],[139.8456,-36.6296],[139.8212,-36.5571],[139.7878,-36.4688],[139.7096,-36.3127],[139.6551,-36.2218],[139.5908,-36.1289],[139.5509,-36.0769],[139.4841,-35.9998],[139.4133,-35.9273],[139.3302,-35.8509],[139.2684,-35.7982],[139.2122,-35.7547],[139.1031,-35.6796],[139.0322,-35.6355],[138.9508,-35.5913],[138.8889,-35.5624],[138.8181,-35.5367],[138.7676,-35.5222],[138.7114,-35.5136],[138.6911,-35.5327],[138.6317,-35.5439],[138.5991,-35.5782],[138.6056,-35.5894],[138.569,-35.6072],[138.5258,-35.6414],[138.4835,-35.6322],[138.4631,-35.6309]],[[138.4631,-35.6309],[138.7261,-35.4003],[138.9972,-34.9497],[139.0428,-34.8001],[138.9003,-34.6275],[138.7497,-34.7402],[138.5234,-35.2501],[138.4477,-35.3153]],[[137.5496,-35.117],[137.5211,-35.1137],[137.5113,-35.119],[137.4682,-35.1006],[137.4242,-35.0979],[137.3737,-35.1203],[137.3526,-35.1341],[137.3338,-35.1684],[137.3005,-35.1684],[137.2597,-35.1592],[137.2378,-35.1645],[137.2109,-35.1836],[137.1905,-35.2093],[137.1881,-35.2303],[137.1441,-35.2435],[137.0489,-35.2224],[137.0016,-35.2231],[136.9699,-35.2521],[136.9666,-35.2672],[136.9463,-35.2692],[136.9438,-35.2824],[136.8999,-35.2857],[136.8828,-35.3002],[136.8706,-35.287],[136.851,-35.2817],[136.8299,-35.2501],[136.8461,-35.2297],[136.8461,-35.1901],[136.8657,-35.1941],[136.8901,-35.1842],[136.895,-35.1618],[136.9341,-35.1394],[136.9471,-35.1052],[136.9601,-35.0894],[136.9552,-35.065],[136.9333,-35.0255],[136.9707,-34.9958],[136.9691,-34.976],[136.9772,-34.9497],[137.0122,-34.9207],[137.009,-34.8976],[137.0481,-34.9042],[137.0766,-34.9187],[137.158,-34.9161],[137.1995,-34.9009],[137.2223,-34.9049],[137.2524,-34.899]],[[135.9815,-34.5136],[135.9579,-34.5103],[135.9318,-34.5294],[135.9041,-34.586],[135.9114,-34.6098],[135.9318,-34.6091],[135.9326,-34.6341],[135.9123,-34.6295],[135.8943,-34.6157],[135.8602,-34.6355],[135.8545,-34.6651],[135.8536,-34.7145],[135.8797,-34.7204],[135.8789,-34.7606],[135.8463,-34.7527],[135.8097,-34.7824],[135.7861,-34.81],[135.8341,-34.8193],[135.861,-34.8074],[135.8968,-34.8048],[135.9302,-34.7679],[135.9538,-34.7606],[135.9611,-34.7837],[135.9839,-34.783],[135.9904,-34.7698],[135.9904,-34.7283],[136.0067,-34.7382],[136.0132,-34.7626],[136.0018,-34.781],[136.0043,-34.7988],[135.9945,-34.8272],[135.9603,-34.8482],[135.9636,-34.8766],[135.9758,-34.9062],[135.9929,-34.9299],[135.9888,-34.953],[136.0034,-34.9767],[135.9839,-34.9892],[135.9603,-34.9919],[135.9416,-34.9859],[135.9285,-34.9484],[135.9098,-34.9365],[135.8634,-34.9194],[135.8471,-34.8812],[135.817,-34.868],[135.7633,-34.8568],[135.7128,-34.8654],[135.7022,-34.9075],[135.6884,-34.9233],[135.6843,-34.9457],[135.655,-34.9365],[135.6192,-34.9392],[135.6232,-34.9075],[135.6045,-34.8785],[135.5524,-34.8311],[135.554,-34.8265],[135.5019,-34.7843],[135.4946,-34.7665],[135.4742,-34.7442],[135.4091,-34.7],[135.3798,-34.6875],[135.3456,-34.6809],[135.3488,-34.6499],[135.3415,-34.6289],[135.3236,-34.6091],[135.2984,-34.5979],[135.2764,-34.5683],[135.2528,-34.5518],[135.2283,-34.5439],[135.2023,-34.5551],[135.1738,-34.5551],[135.129,-34.59],[135.1266,-34.5564],[135.1298,-34.5281],[135.1437,-34.5195],[135.1461,-34.5017],[135.173,-34.4648],[135.1901,-34.4536],[135.195,-34.4339],[135.2096,-34.4339],[135.2161,-34.4951],[135.2617,-34.5103],[135.2951,-34.509],[135.3138,-34.5268],[135.2992,-34.5472],[135.3049,-34.5604],[135.3497,-34.5755],[135.3505,-34.6038],[135.3611,-34.6203],[135.3912,-34.6236],[135.3928,-34.6374],[135.4474,-34.6302],[135.4506,-34.6163],[135.4775,-34.6177],[135.5166,-34.6111],[135.4612,-34.5874],[135.4319,-34.6032],[135.4441,-34.5702],[135.4457,-34.5373],[135.4026,-34.5175],[135.3985,-34.538],[135.4115,-34.5623],[135.414,-34.5874],[135.3887,-34.5939],[135.3993,-34.5663],[135.3952,-34.5465],[135.3773,-34.5248],[135.379,-34.5109],[135.3952,-34.4951],[135.3879,-34.4411],[135.3594,-34.4207],[135.3651,-34.3831],[135.3562,-34.3673],[135.3602,-34.3443],[135.3513,-34.2883],[135.344,-34.2613],[135.3155,-34.202],[135.2927,-34.175],[135.2715,-34.1697],[135.2414,-34.148],[135.2747,-34.1157],[135.2731,-34.0867],[135.2813,-34.0722],[135.269,-34.0353],[135.2707,-34.0162],[135.252,-33.9813],[135.2283,-33.951],[135.1998,-33.9233],[135.1819,-33.8779],[135.1632,-33.8779],[135.129,-33.8357],[135.0826,-33.8041],[135.0679,-33.7843],[135.0264,-33.7441],[134.9849,-33.7171],[134.9369,-33.6921],[134.9189,-33.6769],[134.8449,-33.6321],[134.8424,-33.6091]],[[121.567,-33.8363],[121.5524,-33.8298],[121.5312,-33.8258],[121.5043,-33.8396],[121.4832,-33.8284],[121.4384,-33.8205],[121.4286,-33.8278],[121.3993,-33.8186],[121.361,-33.8153],[121.348,-33.8278],[121.3179,-33.8212],[121.2992,-33.8251],[121.2967,-33.839],[121.269,-33.8508],[121.2177,-33.8423],[121.1998,-33.8443],[121.1803,-33.866],[121.1583,-33.8653],[121.1233,-33.8508],[121.0924,-33.8489],[121.0728,-33.8601],[121.0427,-33.8574],[121.0142,-33.8607],[121.0085,-33.8706],[120.9393,-33.862],[120.9165,-33.866],[120.8685,-33.8561],[120.84,-33.8667],[120.8074,-33.8891],[120.7781,-33.8858],[120.7113,-33.893],[120.6804,-33.8858],[120.6389,-33.8917],[120.6014,-33.8858],[120.5615,-33.8963],[120.5566,-33.9246],[120.5297,-33.9312],[120.4671,-33.9668],[120.4312,-33.9707],[120.3962,-33.9602],[120.2993,-33.9418],[120.2309,-33.9325],[120.1682,-33.9371],[120.1186,-33.9523],[120.1129,-33.945],[120.0437,-33.9233],[120.0111,-33.9365],[119.9891,-33.9371],[119.9818,-33.9549],[119.9452,-33.9767],[119.9256,-33.9694],[119.8507,-33.9701],[119.8043,-33.9905],[119.7815,-34.0267],[119.7506,-34.0412],[119.7327,-34.061],[119.7107,-34.0617],[119.6797,-34.0808],[119.6683,-34.0794],[119.639,-34.0959],[119.6333,-34.1091],[119.5983,-34.1341],[119.5812,-34.1532],[119.5877,-34.171],[119.5543,-34.1987],[119.5307,-34.227],[119.5145,-34.256],[119.5039,-34.2883],[119.499,-34.3238],[119.5071,-34.3594],[119.5153,-34.3621]],[[118.6156,-34.6901],[118.5,-34.6605],[118.2003,-34.6579],[118.0424,-34.6499],[117.6003,-34.5913],[117.0002,-34.3983],[116.7153,-34.2],[116.4002,-34.001],[116.3684,-33.9003],[116.4393,-33.5998],[116.4954,-33.4503],[116.5622,-33.3001],[116.5076,-32.6999],[116.5247,-32.4002],[116.5215,-32.0998],[116.4262,-31.8001],[116.2504,-31.4213],[116.0997,-31.3363],[115.8001,-31.2822],[115.5331,-31.1999],[115.4305,-31.2487]],[[115.4305,-31.2487],[115.424,-31.2302],[115.3987,-31.1801],[115.3808,-31.1176],[115.3311,-31.0293],[115.3254,-30.9996],[115.3132,-30.9746],[115.2937,-30.9482],[115.2505,-30.8731],[115.2188,-30.8323],[115.1895,-30.8244],[115.1878,-30.7842],[115.152,-30.7052],[115.1317,-30.6525],[115.0877,-30.5787],[115.095,-30.5523],[115.0755,-30.52],[115.0559,-30.5042],[115.0714,-30.4779],[115.0502,-30.4219],[115.0511,-30.3955],[115.0421,-30.3376],[115.0201,-30.3171],[115.0388,-30.3],[115.0429,-30.2829],[115.0372,-30.2532],[115.025,-30.2348],[114.9989,-30.2242],[114.9949,-30.1867],[115.0063,-30.159],[115.0014,-30.132],[114.9835,-30.0787],[114.9631,-30.0714],[114.9591,-30.049],[114.9688,-30.0062],[114.9623,-29.9746],[114.9729,-29.9581],[114.9819,-29.9205],[114.9778,-29.8626],[114.981,-29.8448],[114.9648,-29.8079],[114.9591,-29.7684],[114.9591,-29.6695],[114.9778,-29.5839],[114.977,-29.5576],[114.9973,-29.5114],[114.9957,-29.4877],[114.9582,-29.4027],[114.9582,-29.3652],[114.946,-29.3342],[114.9265,-29.3125],[114.9143,-29.2776],[114.9183,-29.2492],[114.9012,-29.2117],[114.8874,-29.1583],[114.8719,-29.1168],[114.832,-29.0661],[114.784,-29.0187],[114.6871,-28.9324],[114.6326,-28.8711],[114.6317,-28.8691]],[[137.0643,-35.6684],[137.0684,-35.6684],[137.1213,-35.652],[137.1425,-35.6296],[137.1629,-35.6328],[137.1848,-35.621],[137.2044,-35.6243],[137.2345,-35.6072],[137.2671,-35.6032],[137.3029,-35.5894],[137.3127,-35.5795],[137.3843,-35.5907],[137.4071,-35.5881],[137.4511,-35.596],[137.495,-35.5808],[137.5113,-35.5953],[137.5472,-35.5867],[137.5651,-35.5722],[137.6343,-35.5676],[137.6302,-35.5927],[137.6082,-35.5907],[137.57,-35.619],[137.583,-35.6427],[137.6164,-35.6361],[137.6416,-35.6408],[137.6432,-35.6552],[137.6058,-35.679],[137.6033,-35.6928],[137.5781,-35.7139],[137.5781,-35.7257],[137.6025,-35.7363],[137.6269,-35.7317],[137.6685,-35.7396],[137.7328,-35.7356],[137.78,-35.7238],[137.8036,-35.758],[137.7906,-35.7653],[137.7442,-35.8054],[137.7491,-35.8344],[137.7686,-35.8285],[137.7947,-35.8338],[137.8134,-35.8252],[137.7987,-35.8101],[137.7654,-35.8107],[137.7792,-35.7942],[137.8224,-35.8002],[137.8525,-35.7949],[137.8924,-35.7587],[137.894,-35.7284],[137.907,-35.7172],[137.973,-35.7198],[138.0463,-35.7429],[138.0682,-35.7633],[138.0666,-35.7804],[138.0886,-35.8035],[138.1195,-35.8199],[138.1236,-35.8344],[138.1106,-35.8483],[138.065,-35.8812],[138.0406,-35.9043],[138.0226,-35.9029],[137.938,-35.8647],[137.9103,-35.8601],[137.8826,-35.8707],[137.8484,-35.8582],[137.8036,-35.8516],[137.7426,-35.8529],[137.7263,-35.8766],[137.6628,-35.8838],[137.6221,-35.9049],[137.6074,-35.9194],[137.5993,-35.9517],[137.618,-35.9754],[137.6025,-36.009],[137.5822,-36.0182],[137.5374,-36.0268],[137.504,-36.0558],[137.4853,-36.0571],[137.4633,-36.0723],[137.3835,-36.0149],[137.3713,-35.9985],[137.2923,-35.9906],[137.2777,-35.9932],[137.2557,-35.982],[137.2174,-35.9774]],[[149.2455,-36.5999],[149.1925,-36.8997],[149.0997,-36.9847],[148.8001,-36.9003],[148.5729,-36.7501],[148.6951,-36.4497],[148.9499,-36.1665],[149.0997,-36.0097],[149.2503,-35.9708],[149.313,-36.3002],[149.2455,-36.5999]],[[150.4496,-30.8409],[149.8504,-31.0326],[149.8504,-30.8112],[149.9212,-30.5998],[150.15,-30.582],[150.4496,-30.8409]]]}}]}